{
"type": "FeatureCollection",
"name": "pais",
"features": [
{ "type": "Feature", "properties": { "nombre": "Costa Rica" }, "geometry": { "type": "MultiPolygon", "coordinates": [ [ [ [ -85.0819, 9.96947 ], [ -85.08242, 9.96741 ], [ -85.0809, 9.96766 ], [ -85.0819, 9.96947 ] ] ], [ [ [ -85.08051, 9.96989 ], [ -85.08087, 9.96996 ], [ -85.08082, 9.96987 ], [ -85.08051, 9.96989 ] ] ], [ [ [ -85.08089, 9.97026 ], [ -85.08079, 9.97024 ], [ -85.08093, 9.97064 ], [ -85.08089, 9.97026 ] ] ], [ [ [ -85.08182, 9.97071 ], [ -85.08176, 9.97077 ], [ -85.08183, 9.97086 ], [ -85.08182, 9.97071 ] ] ], [ [ [ -85.08109, 9.97094 ], [ -85.08103, 9.97097 ], [ -85.0811, 9.97109 ], [ -85.08109, 9.97094 ] ] ], [ [ [ -85.08089, 9.97136 ], [ -85.08086, 9.97158 ], [ -85.08099, 9.97163 ], [ -85.08089, 9.97136 ] ] ], [ [ [ -85.1639, 10.12619 ], [ -85.18032, 10.1251 ], [ -85.18859, 10.11922 ], [ -85.1919, 10.11906 ], [ -85.19453, 10.12071 ], [ -85.19755, 10.11662 ], [ -85.19837, 10.1138 ], [ -85.19696, 10.11049 ], [ -85.19248, 10.10826 ], [ -85.19027, 10.10455 ], [ -85.18733, 10.09252 ], [ -85.18333, 10.08447 ], [ -85.18057, 10.08211 ], [ -85.15801, 10.07364 ], [ -85.14209, 10.07274 ], [ -85.13374, 10.07402 ], [ -85.12432, 10.07875 ], [ -85.11898, 10.07838 ], [ -85.11218, 10.08151 ], [ -85.10848, 10.08152 ], [ -85.10103, 10.08443 ], [ -85.09657, 10.08844 ], [ -85.0934, 10.09586 ], [ -85.09751, 10.09589 ], [ -85.10084, 10.0983 ], [ -85.10702, 10.09386 ], [ -85.11449, 10.09314 ], [ -85.11856, 10.09114 ], [ -85.12187, 10.09527 ], [ -85.12245, 10.09736 ], [ -85.11981, 10.10552 ], [ -85.1159, 10.10226 ], [ -85.1068, 10.10512 ], [ -85.10479, 10.1075 ], [ -85.11658, 10.10978 ], [ -85.1261, 10.11491 ], [ -85.13846, 10.11718 ], [ -85.1461, 10.1215 ], [ -85.14994, 10.12029 ], [ -85.1639, 10.12619 ] ] ], [ [ [ -85.07781, 10.14474 ], [ -85.07949, 10.14235 ], [ -85.0793, 10.13864 ], [ -85.07601, 10.13523 ], [ -85.06349, 10.13521 ], [ -85.06245, 10.1331 ], [ -85.05979, 10.13287 ], [ -85.05015, 10.14104 ], [ -85.04585, 10.14136 ], [ -85.04365, 10.13758 ], [ -85.03623, 10.13318 ], [ -85.02527, 10.13151 ], [ -85.02395, 10.1299 ], [ -85.02524, 10.12783 ], [ -85.02429, 10.12847 ], [ -85.01614, 10.12442 ], [ -85.01377, 10.11734 ], [ -85.00839, 10.11408 ], [ -85.00295, 10.1032 ], [ -84.98625, 10.09718 ], [ -84.98388, 10.09496 ], [ -84.9782, 10.09419 ], [ -84.97592, 10.09208 ], [ -84.97238, 10.09248 ], [ -84.96997, 10.09019 ], [ -84.9669, 10.09034 ], [ -84.96686, 10.08997 ], [ -84.96692, 10.08982 ], [ -84.96772, 10.08934 ], [ -84.96012, 10.08194 ], [ -84.95794, 10.06994 ], [ -84.9552, 10.06986 ], [ -84.95458, 10.06757 ], [ -84.95867, 10.0669 ], [ -84.96582, 10.06894 ], [ -84.96702, 10.06664 ], [ -84.96818, 10.06711 ], [ -84.96873, 10.06436 ], [ -84.96568, 10.06446 ], [ -84.96267, 10.06261 ], [ -84.95817, 10.06351 ], [ -84.95315, 10.05898 ], [ -84.9461, 10.0632 ], [ -84.94521, 10.05864 ], [ -84.93552, 10.05109 ], [ -84.92827, 10.03879 ], [ -84.91573, 10.03388 ], [ -84.90817, 10.02826 ], [ -84.89982, 10.02633 ], [ -84.89732, 10.02042 ], [ -84.89183, 10.01926 ], [ -84.88898, 10.01525 ], [ -84.88547, 10.01395 ], [ -84.88698, 10.01423 ], [ -84.88441, 10.01116 ], [ -84.87757, 10.00748 ], [ -84.87467, 10.00934 ], [ -84.87087, 10.00679 ], [ -84.87068, 10.00521 ], [ -84.86945, 10.00564 ], [ -84.86532, 10.00266 ], [ -84.85832, 10.00461 ], [ -84.85752, 10.00063 ], [ -84.85456, 9.99968 ], [ -84.85314, 9.9964 ], [ -84.84466, 9.99517 ], [ -84.84148, 9.99069 ], [ -84.83824, 9.99038 ], [ -84.8335, 9.98621 ], [ -84.82683, 9.98899 ], [ -84.82702, 9.98624 ], [ -84.8211, 9.98491 ], [ -84.80931, 9.98697 ], [ -84.79835, 9.98388 ], [ -84.79748, 9.98603 ], [ -84.79554, 9.98662 ], [ -84.79382, 9.9847 ], [ -84.79497, 9.98262 ], [ -84.7854, 9.98208 ], [ -84.78274, 9.98608 ], [ -84.78296, 9.99203 ], [ -84.78187, 9.99305 ], [ -84.78092, 9.98752 ], [ -84.78274, 9.98216 ], [ -84.78506, 9.98083 ], [ -84.81591, 9.98271 ], [ -84.82497, 9.97871 ], [ -84.8308, 9.98061 ], [ -84.83798, 9.97975 ], [ -84.8401, 9.97805 ], [ -84.84079, 9.97901 ], [ -84.84325, 9.97705 ], [ -84.84872, 9.97815 ], [ -84.85148, 9.97655 ], [ -84.84926, 9.97445 ], [ -84.833, 9.97455 ], [ -84.80901, 9.98025 ], [ -84.78268, 9.97981 ], [ -84.75599, 9.9742 ], [ -84.743, 9.96969 ], [ -84.73939, 9.9664 ], [ -84.73718, 9.9589 ], [ -84.73954, 9.95695 ], [ -84.73886, 9.95506 ], [ -84.74111, 9.95202 ], [ -84.73993, 9.95073 ], [ -84.74076, 9.94943 ], [ -84.73566, 9.94609 ], [ -84.73572, 9.94083 ], [ -84.72795, 9.93709 ], [ -84.71951, 9.93022 ], [ -84.71516, 9.92257 ], [ -84.71363, 9.9223 ], [ -84.7151, 9.92106 ], [ -84.71325, 9.91965 ], [ -84.71448, 9.914 ], [ -84.71626, 9.91318 ], [ -84.71534, 9.91173 ], [ -84.71789, 9.91268 ], [ -84.71714, 9.91309 ], [ -84.71661, 9.91513 ], [ -84.717, 9.9152 ], [ -84.71742, 9.91301 ], [ -84.72261, 9.91161 ], [ -84.72493, 9.91392 ], [ -84.72765, 9.91398 ], [ -84.72761, 9.91347 ], [ -84.72459, 9.91293 ], [ -84.72263, 9.90694 ], [ -84.72583, 9.89993 ], [ -84.72973, 9.90044 ], [ -84.72939, 9.89473 ], [ -84.73139, 9.89315 ], [ -84.72369, 9.88843 ], [ -84.72324, 9.88408 ], [ -84.71493, 9.88096 ], [ -84.70449, 9.87332 ], [ -84.69718, 9.86379 ], [ -84.69909, 9.86201 ], [ -84.69728, 9.86025 ], [ -84.70126, 9.86098 ], [ -84.70144, 9.8579 ], [ -84.68957, 9.85157 ], [ -84.67877, 9.84169 ], [ -84.6749, 9.83341 ], [ -84.66837, 9.82701 ], [ -84.65697, 9.81126 ], [ -84.64277, 9.78784 ], [ -84.64108, 9.78389 ], [ -84.64246, 9.78205 ], [ -84.64152, 9.78173 ], [ -84.6406, 9.78318 ], [ -84.63908, 9.78171 ], [ -84.63717, 9.7763 ], [ -84.62783, 9.76143 ], [ -84.6291, 9.75843 ], [ -84.62755, 9.75369 ], [ -84.63104, 9.75056 ], [ -84.6325, 9.7402 ], [ -84.63943, 9.73719 ], [ -84.64558, 9.73035 ], [ -84.64778, 9.73113 ], [ -84.65016, 9.72988 ], [ -84.65277, 9.72265 ], [ -84.65586, 9.72145 ], [ -84.65842, 9.71787 ], [ -84.66084, 9.7073 ], [ -84.66643, 9.70556 ], [ -84.6694, 9.71017 ], [ -84.66911, 9.7071 ], [ -84.66773, 9.70462 ], [ -84.66841, 9.70145 ], [ -84.66976, 9.70183 ], [ -84.66902, 9.70102 ], [ -84.67164, 9.69788 ], [ -84.6761, 9.69711 ], [ -84.67394, 9.69035 ], [ -84.67544, 9.69104 ], [ -84.67707, 9.68867 ], [ -84.67569, 9.68769 ], [ -84.67589, 9.6855 ], [ -84.67331, 9.68555 ], [ -84.67493, 9.68224 ], [ -84.67146, 9.67903 ], [ -84.67311, 9.67907 ], [ -84.67111, 9.67856 ], [ -84.66852, 9.67204 ], [ -84.66995, 9.67142 ], [ -84.67007, 9.66658 ], [ -84.67252, 9.66562 ], [ -84.67225, 9.65964 ], [ -84.67913, 9.65842 ], [ -84.67995, 9.65487 ], [ -84.67847, 9.65365 ], [ -84.68059, 9.65265 ], [ -84.68054, 9.65111 ], [ -84.67763, 9.64884 ], [ -84.677, 9.65046 ], [ -84.6751, 9.6491 ], [ -84.67449, 9.65108 ], [ -84.67254, 9.65043 ], [ -84.66892, 9.65225 ], [ -84.66665, 9.65169 ], [ -84.66716, 9.64999 ], [ -84.66414, 9.64842 ], [ -84.66626, 9.65077 ], [ -84.66365, 9.65171 ], [ -84.66358, 9.6493 ], [ -84.66182, 9.65171 ], [ -84.65776, 9.64889 ], [ -84.65489, 9.64352 ], [ -84.65499, 9.63876 ], [ -84.65816, 9.63472 ], [ -84.66267, 9.63379 ], [ -84.66407, 9.63084 ], [ -84.66076, 9.63023 ], [ -84.66072, 9.62839 ], [ -84.65827, 9.62878 ], [ -84.65852, 9.62576 ], [ -84.65735, 9.62639 ], [ -84.6571, 9.62745 ], [ -84.65505, 9.62718 ], [ -84.65286, 9.62274 ], [ -84.65099, 9.62189 ], [ -84.64707, 9.62056 ], [ -84.64507, 9.62207 ], [ -84.6418, 9.62152 ], [ -84.62968, 9.61256 ], [ -84.62131, 9.59982 ], [ -84.62141, 9.59582 ], [ -84.62718, 9.59148 ], [ -84.62312, 9.58818 ], [ -84.62214, 9.58524 ], [ -84.61991, 9.58549 ], [ -84.61989, 9.58321 ], [ -84.61813, 9.58366 ], [ -84.6181, 9.58117 ], [ -84.61131, 9.5788 ], [ -84.58521, 9.56125 ], [ -84.5466, 9.53239 ], [ -84.53749, 9.52079 ], [ -84.53673, 9.51786 ], [ -84.53837, 9.51125 ], [ -84.53454, 9.51866 ], [ -84.53527, 9.51614 ], [ -84.53362, 9.51784 ], [ -84.53449, 9.51511 ], [ -84.5335, 9.51237 ], [ -84.53219, 9.51557 ], [ -84.52896, 9.5175 ], [ -84.52583, 9.51646 ], [ -84.51838, 9.52146 ], [ -84.51373, 9.51986 ], [ -84.50622, 9.52198 ], [ -84.50609, 9.52359 ], [ -84.50463, 9.52277 ], [ -84.50327, 9.52525 ], [ -84.49689, 9.52765 ], [ -84.47039, 9.52763 ], [ -84.45489, 9.52425 ], [ -84.42556, 9.51425 ], [ -84.41968, 9.51435 ], [ -84.41987, 9.51328 ], [ -84.41636, 9.51172 ], [ -84.39592, 9.50831 ], [ -84.39261, 9.50637 ], [ -84.36386, 9.49928 ], [ -84.33928, 9.49118 ], [ -84.33591, 9.492 ], [ -84.3327, 9.48966 ], [ -84.31546, 9.48853 ], [ -84.29672, 9.48506 ], [ -84.25044, 9.47175 ], [ -84.24499, 9.47096 ], [ -84.24116, 9.47275 ], [ -84.23946, 9.46853 ], [ -84.23102, 9.46314 ], [ -84.18683, 9.44582 ], [ -84.17278, 9.43774 ], [ -84.16736, 9.43227 ], [ -84.16511, 9.43242 ], [ -84.16626, 9.42759 ], [ -84.16947, 9.42847 ], [ -84.1704, 9.42782 ], [ -84.16993, 9.42577 ], [ -84.1701, 9.428 ], [ -84.16794, 9.42795 ], [ -84.16811, 9.42495 ], [ -84.16991, 9.425 ], [ -84.17121, 9.42646 ], [ -84.17111, 9.42591 ], [ -84.17017, 9.42481 ], [ -84.17258, 9.42425 ], [ -84.17202, 9.42392 ], [ -84.16965, 9.42433 ], [ -84.16946, 9.42183 ], [ -84.16852, 9.42272 ], [ -84.1664, 9.42125 ], [ -84.16861, 9.41932 ], [ -84.16475, 9.41621 ], [ -84.16639, 9.41442 ], [ -84.16373, 9.41312 ], [ -84.1668, 9.41186 ], [ -84.16692, 9.41035 ], [ -84.16367, 9.40839 ], [ -84.16339, 9.40587 ], [ -84.16733, 9.40075 ], [ -84.16872, 9.40256 ], [ -84.17259, 9.40283 ], [ -84.17657, 9.39993 ], [ -84.17608, 9.39425 ], [ -84.17536, 9.39578 ], [ -84.17319, 9.39449 ], [ -84.16435, 9.39718 ], [ -84.15319, 9.39361 ], [ -84.14826, 9.38953 ], [ -84.14652, 9.38584 ], [ -84.14648, 9.38126 ], [ -84.14747, 9.38016 ], [ -84.14946, 9.38096 ], [ -84.14753, 9.3765 ], [ -84.14445, 9.37706 ], [ -84.14614, 9.3796 ], [ -84.14393, 9.38173 ], [ -84.13948, 9.37988 ], [ -84.13894, 9.37697 ], [ -84.13699, 9.37849 ], [ -84.13526, 9.37711 ], [ -84.13457, 9.37985 ], [ -84.13666, 9.38035 ], [ -84.13554, 9.38437 ], [ -84.13053, 9.38667 ], [ -84.12793, 9.38258 ], [ -84.12893, 9.38148 ], [ -84.1264, 9.37926 ], [ -84.12346, 9.36919 ], [ -84.12323, 9.37336 ], [ -84.11807, 9.37373 ], [ -84.11705, 9.37665 ], [ -84.11243, 9.37399 ], [ -84.09129, 9.37179 ], [ -84.03746, 9.34737 ], [ -84.01676, 9.34004 ], [ -84.00382, 9.33719 ], [ -83.9547, 9.31638 ], [ -83.92991, 9.30136 ], [ -83.90451, 9.28352 ], [ -83.87086, 9.255 ], [ -83.85433, 9.2451 ], [ -83.8528, 9.24111 ], [ -83.84977, 9.2392 ], [ -83.85101, 9.23843 ], [ -83.84579, 9.23726 ], [ -83.84151, 9.23181 ], [ -83.84086, 9.2266 ], [ -83.84197, 9.22379 ], [ -83.84526, 9.22241 ], [ -83.84437, 9.2203 ], [ -83.84186, 9.22296 ], [ -83.83788, 9.22253 ], [ -83.83406, 9.21651 ], [ -83.83102, 9.21819 ], [ -83.82481, 9.21194 ], [ -83.82281, 9.21119 ], [ -83.8184, 9.2132 ], [ -83.81401, 9.20959 ], [ -83.81102, 9.21036 ], [ -83.8088, 9.20625 ], [ -83.8043, 9.20337 ], [ -83.80431, 9.20438 ], [ -83.8008, 9.20469 ], [ -83.79358, 9.20305 ], [ -83.79029, 9.19974 ], [ -83.78921, 9.19592 ], [ -83.78656, 9.19537 ], [ -83.78569, 9.1971 ], [ -83.78415, 9.19672 ], [ -83.77432, 9.18807 ], [ -83.76424, 9.17438 ], [ -83.75919, 9.16543 ], [ -83.75717, 9.1521 ], [ -83.74867, 9.15408 ], [ -83.73121, 9.14809 ], [ -83.72757, 9.14506 ], [ -83.72786, 9.14285 ], [ -83.7238, 9.13902 ], [ -83.72323, 9.13483 ], [ -83.72119, 9.13245 ], [ -83.71659, 9.13193 ], [ -83.71277, 9.12796 ], [ -83.71326, 9.12633 ], [ -83.71092, 9.12575 ], [ -83.70542, 9.11837 ], [ -83.69435, 9.11141 ], [ -83.69293, 9.10875 ], [ -83.69447, 9.10736 ], [ -83.68629, 9.09888 ], [ -83.68636, 9.09661 ], [ -83.6887, 9.09542 ], [ -83.68188, 9.09542 ], [ -83.68057, 9.0918 ], [ -83.67762, 9.09105 ], [ -83.67726, 9.08661 ], [ -83.67957, 9.08359 ], [ -83.67759, 9.08343 ], [ -83.67508, 9.08045 ], [ -83.67034, 9.07974 ], [ -83.66987, 9.07756 ], [ -83.66485, 9.07324 ], [ -83.65781, 9.06985 ], [ -83.66061, 9.06715 ], [ -83.66081, 9.06144 ], [ -83.6429, 9.03749 ], [ -83.6356, 9.02347 ], [ -83.63267, 9.0103 ], [ -83.63245, 8.9737 ], [ -83.63081, 8.9645 ], [ -83.62673, 8.96136 ], [ -83.62855, 8.9549 ], [ -83.62447, 8.93837 ], [ -83.62658, 8.93046 ], [ -83.62393, 8.92858 ], [ -83.62533, 8.91778 ], [ -83.62911, 8.91709 ], [ -83.6273, 8.91583 ], [ -83.6208, 8.91578 ], [ -83.6135, 8.91831 ], [ -83.61209, 8.92081 ], [ -83.60948, 8.92161 ], [ -83.60614, 8.92051 ], [ -83.60581, 8.91891 ], [ -83.60177, 8.91817 ], [ -83.60248, 8.91588 ], [ -83.60077, 8.91112 ], [ -83.60331, 8.91228 ], [ -83.60234, 8.90648 ], [ -83.59957, 8.90124 ], [ -83.61045, 8.88755 ], [ -83.60629, 8.85281 ], [ -83.59569, 8.84299 ], [ -83.59796, 8.83897 ], [ -83.59673, 8.83245 ], [ -83.60369, 8.83145 ], [ -83.60865, 8.8272 ], [ -83.61303, 8.82824 ], [ -83.62251, 8.82178 ], [ -83.62491, 8.82166 ], [ -83.62556, 8.82325 ], [ -83.62785, 8.82229 ], [ -83.62961, 8.81876 ], [ -83.6332, 8.81686 ], [ -83.63618, 8.81787 ], [ -83.63683, 8.81421 ], [ -83.63915, 8.81377 ], [ -83.64159, 8.80933 ], [ -83.64229, 8.8051 ], [ -83.64672, 8.8013 ], [ -83.6461, 8.7986 ], [ -83.65277, 8.79377 ], [ -83.65129, 8.79232 ], [ -83.64736, 8.79318 ], [ -83.64613, 8.78817 ], [ -83.6389, 8.77798 ], [ -83.63876, 8.77349 ], [ -83.63987, 8.7715 ], [ -83.64185, 8.77147 ], [ -83.64747, 8.76728 ], [ -83.64285, 8.75295 ], [ -83.64018, 8.73631 ], [ -83.64625, 8.73484 ], [ -83.64949, 8.73158 ], [ -83.64858, 8.71391 ], [ -83.65142, 8.70275 ], [ -83.65577, 8.69625 ], [ -83.66022, 8.6949 ], [ -83.66541, 8.69086 ], [ -83.67118, 8.6909 ], [ -83.67201, 8.69392 ], [ -83.67502, 8.69484 ], [ -83.67445, 8.69553 ], [ -83.67276, 8.69484 ], [ -83.67427, 8.6968 ], [ -83.67964, 8.69617 ], [ -83.68465, 8.6937 ], [ -83.68959, 8.69426 ], [ -83.69086, 8.69582 ], [ -83.69276, 8.69397 ], [ -83.6963, 8.69342 ], [ -83.69938, 8.68947 ], [ -83.70291, 8.69052 ], [ -83.70816, 8.68864 ], [ -83.70879, 8.68613 ], [ -83.71119, 8.68571 ], [ -83.71208, 8.67825 ], [ -83.7157, 8.67721 ], [ -83.71817, 8.67359 ], [ -83.71537, 8.67035 ], [ -83.71692, 8.66893 ], [ -83.71318, 8.65625 ], [ -83.71424, 8.65013 ], [ -83.71564, 8.64818 ], [ -83.72012, 8.6472 ], [ -83.72281, 8.64322 ], [ -83.72936, 8.64345 ], [ -83.73265, 8.64157 ], [ -83.73214, 8.63746 ], [ -83.73076, 8.63765 ], [ -83.72937, 8.63404 ], [ -83.7296, 8.63092 ], [ -83.73216, 8.62701 ], [ -83.73457, 8.62756 ], [ -83.73662, 8.62265 ], [ -83.73824, 8.6229 ], [ -83.73779, 8.62226 ], [ -83.73567, 8.62239 ], [ -83.73525, 8.62097 ], [ -83.73662, 8.62003 ], [ -83.73634, 8.61358 ], [ -83.7349, 8.61241 ], [ -83.73581, 8.61034 ], [ -83.7344, 8.60995 ], [ -83.73588, 8.60637 ], [ -83.7353, 8.60413 ], [ -83.73421, 8.60457 ], [ -83.73462, 8.60263 ], [ -83.73321, 8.60242 ], [ -83.73518, 8.59943 ], [ -83.73518, 8.59744 ], [ -83.73362, 8.59649 ], [ -83.73515, 8.59506 ], [ -83.73428, 8.59475 ], [ -83.73307, 8.59552 ], [ -83.73254, 8.59175 ], [ -83.72876, 8.58983 ], [ -83.72694, 8.58545 ], [ -83.72331, 8.5849 ], [ -83.72271, 8.58282 ], [ -83.71918, 8.5834 ], [ -83.71965, 8.58536 ], [ -83.71801, 8.58623 ], [ -83.71591, 8.58542 ], [ -83.71513, 8.58305 ], [ -83.71073, 8.58368 ], [ -83.70767, 8.58206 ], [ -83.69783, 8.57342 ], [ -83.68399, 8.55715 ], [ -83.66257, 8.53769 ], [ -83.64994, 8.52109 ], [ -83.64097, 8.51603 ], [ -83.60743, 8.49044 ], [ -83.60216, 8.48514 ], [ -83.60049, 8.47921 ], [ -83.59834, 8.47872 ], [ -83.59764, 8.47517 ], [ -83.59337, 8.47218 ], [ -83.59224, 8.46552 ], [ -83.58879, 8.46155 ], [ -83.58949, 8.45935 ], [ -83.57034, 8.45025 ], [ -83.56833, 8.44766 ], [ -83.57023, 8.44362 ], [ -83.56879, 8.44148 ], [ -83.56445, 8.44046 ], [ -83.56485, 8.44193 ], [ -83.56293, 8.44287 ], [ -83.54427, 8.43881 ], [ -83.54441, 8.44031 ], [ -83.54173, 8.43989 ], [ -83.54255, 8.44164 ], [ -83.53911, 8.44326 ], [ -83.53798, 8.44242 ], [ -83.52255, 8.44562 ], [ -83.52107, 8.44705 ], [ -83.51816, 8.44602 ], [ -83.5131, 8.44723 ], [ -83.5138, 8.44817 ], [ -83.51244, 8.44852 ], [ -83.50561, 8.44683 ], [ -83.49726, 8.44836 ], [ -83.47871, 8.44593 ], [ -83.43475, 8.43417 ], [ -83.38688, 8.41282 ], [ -83.32896, 8.39091 ], [ -83.29913, 8.37547 ], [ -83.29859, 8.37639 ], [ -83.29095, 8.3748 ], [ -83.27763, 8.38626 ], [ -83.27954, 8.39221 ], [ -83.27747, 8.3945 ], [ -83.28109, 8.39913 ], [ -83.27903, 8.40381 ], [ -83.28064, 8.40581 ], [ -83.28056, 8.40931 ], [ -83.27842, 8.41324 ], [ -83.27967, 8.4159 ], [ -83.27894, 8.41988 ], [ -83.27439, 8.42451 ], [ -83.27268, 8.4301 ], [ -83.27394, 8.43353 ], [ -83.27828, 8.43638 ], [ -83.28443, 8.44664 ], [ -83.27995, 8.45696 ], [ -83.27156, 8.46596 ], [ -83.27585, 8.47348 ], [ -83.27754, 8.48062 ], [ -83.28551, 8.48477 ], [ -83.2876, 8.49279 ], [ -83.29016, 8.49415 ], [ -83.29149, 8.49764 ], [ -83.29156, 8.50437 ], [ -83.28468, 8.5324 ], [ -83.28404, 8.54126 ], [ -83.28611, 8.54227 ], [ -83.28949, 8.54093 ], [ -83.29325, 8.53749 ], [ -83.29265, 8.53565 ], [ -83.29852, 8.53898 ], [ -83.2974, 8.53893 ], [ -83.29842, 8.54058 ], [ -83.30229, 8.54044 ], [ -83.30404, 8.54234 ], [ -83.30616, 8.54059 ], [ -83.30734, 8.54425 ], [ -83.31038, 8.54494 ], [ -83.31025, 8.54705 ], [ -83.31367, 8.54866 ], [ -83.31208, 8.55069 ], [ -83.31342, 8.55026 ], [ -83.31484, 8.55265 ], [ -83.31657, 8.55262 ], [ -83.31566, 8.55286 ], [ -83.32339, 8.56163 ], [ -83.32366, 8.56731 ], [ -83.3241, 8.56635 ], [ -83.32573, 8.56853 ], [ -83.32891, 8.56918 ], [ -83.33049, 8.56491 ], [ -83.32986, 8.56818 ], [ -83.33457, 8.56863 ], [ -83.33506, 8.56733 ], [ -83.33638, 8.5672 ], [ -83.33633, 8.56735 ], [ -83.33515, 8.56747 ], [ -83.33561, 8.56848 ], [ -83.3389, 8.57115 ], [ -83.35198, 8.57593 ], [ -83.37435, 8.5749 ], [ -83.37382, 8.57619 ], [ -83.37727, 8.5791 ], [ -83.37768, 8.58479 ], [ -83.38667, 8.58394 ], [ -83.39151, 8.58859 ], [ -83.39943, 8.59207 ], [ -83.41021, 8.60553 ], [ -83.41349, 8.60658 ], [ -83.41521, 8.60949 ], [ -83.41691, 8.60865 ], [ -83.41693, 8.60925 ], [ -83.41658, 8.60982 ], [ -83.41539, 8.6102 ], [ -83.41565, 8.6107 ], [ -83.41622, 8.61087 ], [ -83.41715, 8.60959 ], [ -83.41911, 8.60889 ], [ -83.41894, 8.60924 ], [ -83.41837, 8.60955 ], [ -83.4173, 8.60977 ], [ -83.41644, 8.61108 ], [ -83.41563, 8.61115 ], [ -83.41677, 8.61335 ], [ -83.4187, 8.61216 ], [ -83.41963, 8.6144 ], [ -83.42404, 8.61666 ], [ -83.42396, 8.61538 ], [ -83.42481, 8.61487 ], [ -83.42455, 8.61557 ], [ -83.42399, 8.61576 ], [ -83.42717, 8.61806 ], [ -83.42917, 8.62333 ], [ -83.42859, 8.62327 ], [ -83.42797, 8.62228 ], [ -83.42884, 8.62479 ], [ -83.42741, 8.62594 ], [ -83.42952, 8.62722 ], [ -83.43211, 8.62617 ], [ -83.43152, 8.62681 ], [ -83.43072, 8.6269 ], [ -83.43296, 8.62946 ], [ -83.43264, 8.63129 ], [ -83.43389, 8.63092 ], [ -83.43544, 8.63422 ], [ -83.4358, 8.63174 ], [ -83.43663, 8.6317 ], [ -83.437, 8.63257 ], [ -83.43554, 8.64074 ], [ -83.43306, 8.64475 ], [ -83.43382, 8.65062 ], [ -83.4346, 8.65051 ], [ -83.43514, 8.64934 ], [ -83.43474, 8.65058 ], [ -83.43244, 8.65194 ], [ -83.43493, 8.65983 ], [ -83.4406, 8.66346 ], [ -83.44394, 8.66727 ], [ -83.4438, 8.66939 ], [ -83.4493, 8.67493 ], [ -83.45645, 8.67722 ], [ -83.45539, 8.67838 ], [ -83.45791, 8.68521 ], [ -83.46078, 8.68691 ], [ -83.46605, 8.68604 ], [ -83.4676, 8.69486 ], [ -83.46921, 8.69504 ], [ -83.47159, 8.70099 ], [ -83.47544, 8.69892 ], [ -83.47728, 8.69432 ], [ -83.48185, 8.69324 ], [ -83.48371, 8.69704 ], [ -83.48553, 8.70255 ], [ -83.48497, 8.70861 ], [ -83.48289, 8.71361 ], [ -83.48131, 8.71438 ], [ -83.48055, 8.71933 ], [ -83.474, 8.72139 ], [ -83.46874, 8.71965 ], [ -83.46797, 8.72293 ], [ -83.46451, 8.72621 ], [ -83.4605, 8.72571 ], [ -83.45595, 8.72183 ], [ -83.44405, 8.72454 ], [ -83.44287, 8.72272 ], [ -83.43948, 8.72213 ], [ -83.43847, 8.71736 ], [ -83.43609, 8.71677 ], [ -83.43327, 8.71307 ], [ -83.42901, 8.71552 ], [ -83.42724, 8.71514 ], [ -83.42427, 8.71871 ], [ -83.41769, 8.71908 ], [ -83.41575, 8.72551 ], [ -83.40497, 8.73301 ], [ -83.40471, 8.73629 ], [ -83.40186, 8.73657 ], [ -83.39785, 8.73305 ], [ -83.39712, 8.73449 ], [ -83.39452, 8.73445 ], [ -83.39403, 8.73121 ], [ -83.39089, 8.73036 ], [ -83.39054, 8.73381 ], [ -83.38663, 8.73473 ], [ -83.38315, 8.74024 ], [ -83.37969, 8.73993 ], [ -83.38199, 8.74402 ], [ -83.38336, 8.744 ], [ -83.38158, 8.74631 ], [ -83.37885, 8.7434 ], [ -83.37776, 8.74641 ], [ -83.37732, 8.74626 ], [ -83.37722, 8.74588 ], [ -83.37746, 8.74472 ], [ -83.37797, 8.74365 ], [ -83.3768, 8.74504 ], [ -83.37617, 8.74377 ], [ -83.37582, 8.7456 ], [ -83.37571, 8.74483 ], [ -83.37596, 8.74341 ], [ -83.37391, 8.74268 ], [ -83.3725, 8.73902 ], [ -83.37361, 8.7371 ], [ -83.37285, 8.73489 ], [ -83.37114, 8.73727 ], [ -83.36794, 8.73822 ], [ -83.36258, 8.73705 ], [ -83.3615, 8.73512 ], [ -83.35451, 8.73196 ], [ -83.3539, 8.73558 ], [ -83.34731, 8.73705 ], [ -83.3414, 8.72871 ], [ -83.33123, 8.72487 ], [ -83.33543, 8.72468 ], [ -83.33307, 8.72084 ], [ -83.32612, 8.72251 ], [ -83.32495, 8.71769 ], [ -83.32392, 8.71803 ], [ -83.32494, 8.71669 ], [ -83.32306, 8.71658 ], [ -83.32432, 8.71615 ], [ -83.32362, 8.7153 ], [ -83.32139, 8.71568 ], [ -83.32217, 8.71516 ], [ -83.32316, 8.71503 ], [ -83.32495, 8.71548 ], [ -83.32882, 8.71317 ], [ -83.33103, 8.7091 ], [ -83.32928, 8.70494 ], [ -83.333, 8.70178 ], [ -83.33067, 8.6994 ], [ -83.33058, 8.69529 ], [ -83.32683, 8.69127 ], [ -83.3266, 8.68624 ], [ -83.33037, 8.68484 ], [ -83.32885, 8.68036 ], [ -83.32205, 8.6775 ], [ -83.32212, 8.67538 ], [ -83.32051, 8.67397 ], [ -83.31417, 8.67263 ], [ -83.30864, 8.67389 ], [ -83.30662, 8.6731 ], [ -83.30512, 8.66835 ], [ -83.30071, 8.66669 ], [ -83.29905, 8.66417 ], [ -83.2951, 8.65357 ], [ -83.29037, 8.65795 ], [ -83.28573, 8.65836 ], [ -83.28477, 8.65723 ], [ -83.27748, 8.66007 ], [ -83.27551, 8.65984 ], [ -83.2723, 8.65609 ], [ -83.26446, 8.65769 ], [ -83.25446, 8.65711 ], [ -83.25123, 8.65062 ], [ -83.25209, 8.649 ], [ -83.24988, 8.6482 ], [ -83.24452, 8.63406 ], [ -83.23708, 8.62713 ], [ -83.23581, 8.63211 ], [ -83.23292, 8.63337 ], [ -83.23573, 8.63518 ], [ -83.2342, 8.6395 ], [ -83.2249, 8.64128 ], [ -83.22314, 8.63924 ], [ -83.21906, 8.63827 ], [ -83.21636, 8.63474 ], [ -83.21645, 8.63091 ], [ -83.21463, 8.63126 ], [ -83.21265, 8.6286 ], [ -83.20671, 8.63179 ], [ -83.20454, 8.63046 ], [ -83.20394, 8.62691 ], [ -83.20123, 8.62855 ], [ -83.19737, 8.62853 ], [ -83.19474, 8.62541 ], [ -83.18229, 8.62178 ], [ -83.17732, 8.62568 ], [ -83.17622, 8.62943 ], [ -83.17708, 8.63115 ], [ -83.17444, 8.63461 ], [ -83.17744, 8.63483 ], [ -83.17676, 8.63904 ], [ -83.18182, 8.63911 ], [ -83.18303, 8.64034 ], [ -83.18456, 8.63848 ], [ -83.18416, 8.6432 ], [ -83.18363, 8.64303 ], [ -83.18208, 8.64137 ], [ -83.17814, 8.64204 ], [ -83.17659, 8.64103 ], [ -83.17698, 8.64221 ], [ -83.17662, 8.64186 ], [ -83.1763, 8.64106 ], [ -83.17591, 8.64381 ], [ -83.17714, 8.64422 ], [ -83.17512, 8.64437 ], [ -83.17408, 8.64273 ], [ -83.17096, 8.64203 ], [ -83.17115, 8.63806 ], [ -83.16432, 8.63621 ], [ -83.15435, 8.62369 ], [ -83.14141, 8.61419 ], [ -83.14, 8.60922 ], [ -83.13473, 8.60385 ], [ -83.13524, 8.6003 ], [ -83.13193, 8.60253 ], [ -83.12688, 8.60075 ], [ -83.12532, 8.60166 ], [ -83.12361, 8.60082 ], [ -83.12207, 8.59534 ], [ -83.11723, 8.59641 ], [ -83.12151, 8.59503 ], [ -83.12231, 8.59523 ], [ -83.12272, 8.59614 ], [ -83.12334, 8.5962 ], [ -83.12268, 8.59406 ], [ -83.12054, 8.59458 ], [ -83.12106, 8.59309 ], [ -83.12402, 8.5937 ], [ -83.13261, 8.58852 ], [ -83.13532, 8.59082 ], [ -83.13914, 8.59071 ], [ -83.13857, 8.58469 ], [ -83.14015, 8.58314 ], [ -83.14393, 8.58344 ], [ -83.14498, 8.58141 ], [ -83.14752, 8.5826 ], [ -83.14849, 8.58016 ], [ -83.15245, 8.58005 ], [ -83.15342, 8.57826 ], [ -83.15344, 8.57954 ], [ -83.15595, 8.57774 ], [ -83.15983, 8.57833 ], [ -83.15938, 8.58001 ], [ -83.1623, 8.58 ], [ -83.15962, 8.58082 ], [ -83.15994, 8.58232 ], [ -83.16257, 8.58203 ], [ -83.16358, 8.58364 ], [ -83.15948, 8.58261 ], [ -83.15711, 8.58 ], [ -83.15391, 8.5811 ], [ -83.15531, 8.58293 ], [ -83.15438, 8.58324 ], [ -83.16051, 8.58565 ], [ -83.16416, 8.58502 ], [ -83.16708, 8.58832 ], [ -83.16336, 8.5853 ], [ -83.1621, 8.5878 ], [ -83.15993, 8.58691 ], [ -83.15933, 8.59052 ], [ -83.16078, 8.59114 ], [ -83.15941, 8.59159 ], [ -83.16064, 8.59236 ], [ -83.15514, 8.59547 ], [ -83.1596, 8.59935 ], [ -83.15886, 8.60123 ], [ -83.16115, 8.60121 ], [ -83.16081, 8.60344 ], [ -83.15698, 8.60484 ], [ -83.15702, 8.60689 ], [ -83.15469, 8.60846 ], [ -83.15177, 8.60866 ], [ -83.15453, 8.61043 ], [ -83.15885, 8.60739 ], [ -83.16352, 8.60719 ], [ -83.16497, 8.60829 ], [ -83.16592, 8.61363 ], [ -83.16746, 8.61326 ], [ -83.16519, 8.61498 ], [ -83.16671, 8.61559 ], [ -83.16817, 8.61478 ], [ -83.16775, 8.61353 ], [ -83.16856, 8.61356 ], [ -83.16906, 8.61515 ], [ -83.1721, 8.61274 ], [ -83.17138, 8.61202 ], [ -83.17372, 8.60767 ], [ -83.17646, 8.60729 ], [ -83.17801, 8.61127 ], [ -83.17651, 8.61077 ], [ -83.17679, 8.61263 ], [ -83.17475, 8.61289 ], [ -83.17664, 8.61423 ], [ -83.1737, 8.61879 ], [ -83.16827, 8.62129 ], [ -83.1717, 8.62217 ], [ -83.17103, 8.62287 ], [ -83.17012, 8.62288 ], [ -83.17091, 8.62329 ], [ -83.17166, 8.62256 ], [ -83.17104, 8.62407 ], [ -83.16952, 8.62325 ], [ -83.17086, 8.62535 ], [ -83.17347, 8.62307 ], [ -83.17842, 8.61096 ], [ -83.17506, 8.59315 ], [ -83.17277, 8.59317 ], [ -83.1681, 8.58825 ], [ -83.1607, 8.57107 ], [ -83.14755, 8.56273 ], [ -83.14115, 8.55479 ], [ -83.15, 8.54754 ], [ -83.15193, 8.54809 ], [ -83.15096, 8.5434 ], [ -83.14748, 8.53841 ], [ -83.14095, 8.52179 ], [ -83.13578, 8.51394 ], [ -83.12161, 8.4996 ], [ -83.1062, 8.4787 ], [ -83.09766, 8.46442 ], [ -83.09269, 8.44997 ], [ -83.09876, 8.44122 ], [ -83.10335, 8.43755 ], [ -83.10534, 8.43224 ], [ -83.10537, 8.42604 ], [ -83.11132, 8.41382 ], [ -83.11981, 8.40663 ], [ -83.12811, 8.40486 ], [ -83.13237, 8.40212 ], [ -83.13434, 8.39726 ], [ -83.13918, 8.39368 ], [ -83.14244, 8.3846 ], [ -83.14549, 8.38108 ], [ -83.14435, 8.37179 ], [ -83.14576, 8.36582 ], [ -83.13679, 8.35475 ], [ -83.12828, 8.34896 ], [ -83.12692, 8.3457 ], [ -83.12384, 8.34342 ], [ -83.12402, 8.3412 ], [ -83.12092, 8.33882 ], [ -83.07986, 8.31388 ], [ -83.04489, 8.29545 ], [ -83.02361, 8.27741 ], [ -83.00804, 8.26667 ], [ -82.99495, 8.26015 ], [ -82.99328, 8.25522 ], [ -82.98898, 8.25526 ], [ -82.98495, 8.25272 ], [ -82.97309, 8.24017 ], [ -82.96997, 8.23503 ], [ -82.97051, 8.23381 ], [ -82.96375, 8.22614 ], [ -82.93409, 8.18006 ], [ -82.92706, 8.16268 ], [ -82.92371, 8.14812 ], [ -82.91784, 8.14052 ], [ -82.91503, 8.13285 ], [ -82.90284, 8.11331 ], [ -82.89941, 8.09771 ], [ -82.9005, 8.08675 ], [ -82.90357, 8.0787 ], [ -82.90677, 8.07617 ], [ -82.91086, 8.07635 ], [ -82.91496, 8.07959 ], [ -82.91226, 8.07361 ], [ -82.91395, 8.07147 ], [ -82.9164, 8.07233 ], [ -82.91343, 8.06764 ], [ -82.91501, 8.06631 ], [ -82.9138, 8.06316 ], [ -82.91641, 8.0615 ], [ -82.91566, 8.05653 ], [ -82.91203, 8.05077 ], [ -82.9106, 8.05059 ], [ -82.90821, 8.04481 ], [ -82.90346, 8.04025 ], [ -82.90095, 8.04423 ], [ -82.89092, 8.05163 ], [ -82.89163, 8.05423 ], [ -82.89506, 8.05453 ], [ -82.89717, 8.06446 ], [ -82.89221, 8.07065 ], [ -82.89167, 8.07385 ], [ -82.88694, 8.07872 ], [ -82.8888, 8.0822 ], [ -82.88831, 8.09192 ], [ -82.89057, 8.10187 ], [ -82.88982, 8.10401 ], [ -82.88672, 8.10591 ], [ -82.88608, 8.10847 ], [ -82.89001, 8.11092 ], [ -82.88957, 8.11439 ], [ -82.89304, 8.1155 ], [ -82.89548, 8.11926 ], [ -82.89859, 8.1246 ], [ -82.89866, 8.128 ], [ -82.90125, 8.12905 ], [ -82.90131, 8.13178 ], [ -82.90425, 8.1364 ], [ -82.90333, 8.13981 ], [ -82.90624, 8.14028 ], [ -82.908, 8.14374 ], [ -82.91016, 8.1529 ], [ -82.90678, 8.15554 ], [ -82.90862, 8.15586 ], [ -82.9101, 8.1584 ], [ -82.90809, 8.16473 ], [ -82.90964, 8.16865 ], [ -82.90837, 8.17616 ], [ -82.91514, 8.17806 ], [ -82.91135, 8.1818 ], [ -82.9104, 8.19555 ], [ -82.91852, 8.19711 ], [ -82.92428, 8.20363 ], [ -82.92286, 8.20618 ], [ -82.9266, 8.20636 ], [ -82.9289, 8.21006 ], [ -82.93129, 8.21109 ], [ -82.93591, 8.21039 ], [ -82.93529, 8.21795 ], [ -82.93674, 8.22017 ], [ -82.93419, 8.22494 ], [ -82.9283, 8.22916 ], [ -82.93062, 8.22922 ], [ -82.93191, 8.23118 ], [ -82.93017, 8.24075 ], [ -82.93085, 8.24323 ], [ -82.93388, 8.24461 ], [ -82.93253, 8.2494 ], [ -82.93816, 8.25219 ], [ -82.93837, 8.26256 ], [ -82.94221, 8.27178 ], [ -82.94741, 8.26737 ], [ -82.95271, 8.2671 ], [ -82.9571, 8.28072 ], [ -82.96017, 8.28052 ], [ -82.96289, 8.27789 ], [ -82.96853, 8.2786 ], [ -82.97592, 8.28857 ], [ -82.98059, 8.28624 ], [ -82.98305, 8.27817 ], [ -82.98711, 8.27535 ], [ -82.98738, 8.27195 ], [ -82.99061, 8.27125 ], [ -82.99978, 8.28658 ], [ -83.00504, 8.28913 ], [ -83.00521, 8.29625 ], [ -83.00822, 8.29598 ], [ -83.00864, 8.29802 ], [ -83.0126, 8.29866 ], [ -83.01523, 8.30241 ], [ -83.01989, 8.30233 ], [ -83.02428, 8.30559 ], [ -83.02551, 8.30722 ], [ -83.02272, 8.31124 ], [ -83.02393, 8.31268 ], [ -83.02793, 8.31455 ], [ -83.03012, 8.31182 ], [ -83.03341, 8.31366 ], [ -83.03688, 8.31893 ], [ -83.04282, 8.31538 ], [ -83.04592, 8.31759 ], [ -83.04557, 8.32103 ], [ -83.04939, 8.32276 ], [ -83.0476, 8.32491 ], [ -83.05162, 8.33084 ], [ -83.05189, 8.33451 ], [ -83.04965, 8.33658 ], [ -83.04678, 8.3369 ], [ -83.04777, 8.34187 ], [ -83.04004, 8.34418 ], [ -83.03886, 8.3463 ], [ -83.0276, 8.3522 ], [ -83.01895, 8.35059 ], [ -83.01598, 8.35533 ], [ -83.01037, 8.35425 ], [ -83.00724, 8.35557 ], [ -83.00173, 8.36027 ], [ -82.99973, 8.3669 ], [ -82.99603, 8.36774 ], [ -82.9894, 8.37638 ], [ -82.98581, 8.37216 ], [ -82.98416, 8.37233 ], [ -82.97687, 8.38181 ], [ -82.97364, 8.3826 ], [ -82.96945, 8.38627 ], [ -82.96664, 8.39431 ], [ -82.96268, 8.39686 ], [ -82.96087, 8.40265 ], [ -82.9541, 8.40783 ], [ -82.95353, 8.41391 ], [ -82.9356, 8.42366 ], [ -82.93104, 8.43497 ], [ -82.91533, 8.42868 ], [ -82.86852, 8.43966 ], [ -82.83956, 8.4801 ], [ -82.83182, 8.50444 ], [ -82.83408, 8.5076 ], [ -82.83326, 8.52372 ], [ -82.83766, 8.52962 ], [ -82.83982, 8.54628 ], [ -82.83503, 8.5539 ], [ -82.83016, 8.55671 ], [ -82.82242, 8.56723 ], [ -82.82688, 8.58228 ], [ -82.82908, 8.58425 ], [ -82.83016, 8.58843 ], [ -82.83361, 8.5896 ], [ -82.83334, 8.59475 ], [ -82.83167, 8.59486 ], [ -82.82685, 8.60115 ], [ -82.83044, 8.6068 ], [ -82.8364, 8.60965 ], [ -82.8386, 8.61286 ], [ -82.83629, 8.61517 ], [ -82.83024, 8.61417 ], [ -82.82817, 8.61597 ], [ -82.82975, 8.6347 ], [ -82.83051, 8.63651 ], [ -82.83586, 8.63728 ], [ -82.83464, 8.64364 ], [ -82.83887, 8.64945 ], [ -82.84017, 8.64951 ], [ -82.84263, 8.65475 ], [ -82.85467, 8.66297 ], [ -82.85717, 8.66671 ], [ -82.85867, 8.67614 ], [ -82.86154, 8.67674 ], [ -82.86459, 8.67973 ], [ -82.86182, 8.68829 ], [ -82.8656, 8.69015 ], [ -82.86819, 8.69767 ], [ -82.87044, 8.69895 ], [ -82.87671, 8.69678 ], [ -82.88063, 8.69727 ], [ -82.88108, 8.70008 ], [ -82.88719, 8.70482 ], [ -82.8906, 8.71061 ], [ -82.89224, 8.71046 ], [ -82.89197, 8.71226 ], [ -82.89798, 8.7159 ], [ -82.90184, 8.7279 ], [ -82.9012, 8.73155 ], [ -82.90434, 8.73629 ], [ -82.90956, 8.73614 ], [ -82.913, 8.74065 ], [ -82.91635, 8.74105 ], [ -82.91899, 8.75266 ], [ -82.91613, 8.75225 ], [ -82.91254, 8.75423 ], [ -82.90938, 8.75816 ], [ -82.9158, 8.76002 ], [ -82.91617, 8.76391 ], [ -82.91876, 8.76534 ], [ -82.91396, 8.76701 ], [ -82.91446, 8.76998 ], [ -82.90988, 8.7739 ], [ -82.90654, 8.77489 ], [ -82.89895, 8.77511 ], [ -82.89682, 8.77191 ], [ -82.89262, 8.77187 ], [ -82.89278, 8.77808 ], [ -82.89143, 8.779 ], [ -82.89486, 8.78294 ], [ -82.8906, 8.78512 ], [ -82.88959, 8.79061 ], [ -82.89059, 8.79146 ], [ -82.86559, 8.80514 ], [ -82.86256, 8.81779 ], [ -82.86947, 8.81662 ], [ -82.87732, 8.81981 ], [ -82.87636, 8.82249 ], [ -82.88092, 8.8225 ], [ -82.88191, 8.82582 ], [ -82.88366, 8.82647 ], [ -82.8839, 8.82954 ], [ -82.88273, 8.83216 ], [ -82.8706, 8.84245 ], [ -82.86814, 8.84672 ], [ -82.86271, 8.8492 ], [ -82.8623, 8.85267 ], [ -82.85622, 8.8533 ], [ -82.85462, 8.85633 ], [ -82.84816, 8.85342 ], [ -82.83858, 8.85689 ], [ -82.83393, 8.8561 ], [ -82.82018, 8.86038 ], [ -82.81306, 8.8644 ], [ -82.80882, 8.87318 ], [ -82.79795, 8.87715 ], [ -82.7887, 8.87748 ], [ -82.78219, 8.87498 ], [ -82.77689, 8.87669 ], [ -82.7696, 8.88259 ], [ -82.76095, 8.88515 ], [ -82.75952, 8.88846 ], [ -82.75101, 8.89326 ], [ -82.74682, 8.89963 ], [ -82.74884, 8.90214 ], [ -82.74886, 8.9064 ], [ -82.74251, 8.91052 ], [ -82.72437, 8.91731 ], [ -82.72086, 8.92067 ], [ -82.71221, 8.92207 ], [ -82.71202, 8.92433 ], [ -82.71241, 8.92943 ], [ -82.71468, 8.93318 ], [ -82.7139, 8.93736 ], [ -82.71697, 8.94586 ], [ -82.71677, 8.94938 ], [ -82.72751, 8.95577 ], [ -82.72773, 8.96009 ], [ -82.73617, 8.9621 ], [ -82.7399, 8.96689 ], [ -82.73853, 8.969 ], [ -82.7383, 8.9748 ], [ -82.7362, 8.97686 ], [ -82.74052, 8.98302 ], [ -82.7407, 8.98543 ], [ -82.74467, 8.98601 ], [ -82.7483, 8.99102 ], [ -82.76378, 8.99845 ], [ -82.76563, 8.9974 ], [ -82.77078, 8.99964 ], [ -82.77414, 9.00371 ], [ -82.77689, 9.00272 ], [ -82.78227, 9.00535 ], [ -82.78521, 9.00358 ], [ -82.79963, 9.00343 ], [ -82.80548, 9.00984 ], [ -82.8038, 9.01401 ], [ -82.80508, 9.01578 ], [ -82.8097, 9.01664 ], [ -82.815, 9.0199 ], [ -82.81391, 9.0237 ], [ -82.81755, 9.02986 ], [ -82.82362, 9.03045 ], [ -82.82425, 9.03375 ], [ -82.83007, 9.03528 ], [ -82.83598, 9.03418 ], [ -82.83632, 9.03658 ], [ -82.84013, 9.04033 ], [ -82.84473, 9.04036 ], [ -82.84438, 9.04284 ], [ -82.84635, 9.04194 ], [ -82.84986, 9.04548 ], [ -82.85531, 9.04617 ], [ -82.85796, 9.05033 ], [ -82.85685, 9.05282 ], [ -82.85901, 9.05411 ], [ -82.85871, 9.05657 ], [ -82.8638, 9.05733 ], [ -82.86871, 9.05457 ], [ -82.87803, 9.06092 ], [ -82.87947, 9.06967 ], [ -82.88273, 9.07106 ], [ -82.88306, 9.0742 ], [ -82.88715, 9.07998 ], [ -82.8873, 9.08782 ], [ -82.89306, 9.08908 ], [ -82.90691, 9.08214 ], [ -82.9191, 9.08418 ], [ -82.92261, 9.08287 ], [ -82.93439, 9.08375 ], [ -82.9435, 9.47288 ], [ -82.84087, 9.49713 ], [ -82.84287, 9.49966 ], [ -82.84441, 9.49936 ], [ -82.84274, 9.50482 ], [ -82.84785, 9.5086 ], [ -82.84758, 9.51489 ], [ -82.85679, 9.51118 ], [ -82.85734, 9.51297 ], [ -82.8538, 9.5157 ], [ -82.85491, 9.51972 ], [ -82.86489, 9.5182 ], [ -82.8718, 9.52383 ], [ -82.87291, 9.52625 ], [ -82.87151, 9.53314 ], [ -82.8741, 9.53853 ], [ -82.86983, 9.54119 ], [ -82.8669, 9.54521 ], [ -82.87083, 9.55203 ], [ -82.86789, 9.55336 ], [ -82.87049, 9.55543 ], [ -82.87719, 9.5536 ], [ -82.881, 9.55556 ], [ -82.88187, 9.56264 ], [ -82.88543, 9.56538 ], [ -82.87686, 9.58154 ], [ -82.87742, 9.5908 ], [ -82.8723, 9.5947 ], [ -82.86542, 9.59017 ], [ -82.85966, 9.59033 ], [ -82.85917, 9.59215 ], [ -82.8633, 9.59486 ], [ -82.86393, 9.60284 ], [ -82.85871, 9.61228 ], [ -82.84671, 9.61702 ], [ -82.83958, 9.6158 ], [ -82.83328, 9.61171 ], [ -82.82612, 9.61157 ], [ -82.82453, 9.60442 ], [ -82.81839, 9.6027 ], [ -82.81624, 9.59701 ], [ -82.80421, 9.59596 ], [ -82.79944, 9.59964 ], [ -82.79142, 9.59821 ], [ -82.78613, 9.59532 ], [ -82.78235, 9.58893 ], [ -82.77681, 9.58476 ], [ -82.77288, 9.58687 ], [ -82.7699, 9.58639 ], [ -82.76186, 9.59455 ], [ -82.75237, 9.59005 ], [ -82.75024, 9.5904 ], [ -82.74692, 9.59424 ], [ -82.74412, 9.59381 ], [ -82.74224, 9.59015 ], [ -82.7456, 9.58797 ], [ -82.74783, 9.5823 ], [ -82.74398, 9.5757 ], [ -82.74313, 9.56871 ], [ -82.73006, 9.56558 ], [ -82.72621, 9.56089 ], [ -82.72902, 9.5545 ], [ -82.71878, 9.55105 ], [ -82.71539, 9.54596 ], [ -82.71211, 9.54738 ], [ -82.71084, 9.55391 ], [ -82.70747, 9.55485 ], [ -82.70277, 9.54552 ], [ -82.69507, 9.54378 ], [ -82.69233, 9.53549 ], [ -82.69432, 9.53317 ], [ -82.6997, 9.53178 ], [ -82.7005, 9.52772 ], [ -82.69238, 9.51975 ], [ -82.69243, 9.51408 ], [ -82.69062, 9.5115 ], [ -82.68062, 9.50721 ], [ -82.67541, 9.51355 ], [ -82.67257, 9.50896 ], [ -82.67272, 9.50238 ], [ -82.67062, 9.50094 ], [ -82.66583, 9.50053 ], [ -82.66175, 9.50251 ], [ -82.66175, 9.5091 ], [ -82.66038, 9.51072 ], [ -82.65771, 9.50957 ], [ -82.65657, 9.50553 ], [ -82.65076, 9.50103 ], [ -82.64872, 9.49711 ], [ -82.64021, 9.49605 ], [ -82.63497, 9.49369 ], [ -82.63395, 9.49732 ], [ -82.63627, 9.50111 ], [ -82.63452, 9.50301 ], [ -82.61919, 9.49829 ], [ -82.60914, 9.50139 ], [ -82.60383, 9.50939 ], [ -82.60518, 9.51761 ], [ -82.60452, 9.52339 ], [ -82.59768, 9.53387 ], [ -82.59831, 9.54004 ], [ -82.60413, 9.55067 ], [ -82.60387, 9.55635 ], [ -82.60138, 9.55851 ], [ -82.59385, 9.55988 ], [ -82.57898, 9.55697 ], [ -82.57353, 9.55343 ], [ -82.56663, 9.54295 ], [ -82.56136, 9.54012 ], [ -82.55437, 9.54325 ], [ -82.55301, 9.54961 ], [ -82.56537, 9.56299 ], [ -82.56358, 9.57208 ], [ -82.59204, 9.58692 ], [ -82.60421, 9.59626 ], [ -82.61825, 9.61279 ], [ -82.62064, 9.61916 ], [ -82.61901, 9.63058 ], [ -82.62216, 9.63246 ], [ -82.62214, 9.63518 ], [ -82.62369, 9.63441 ], [ -82.63353, 9.63833 ], [ -82.6405, 9.63544 ], [ -82.64926, 9.63994 ], [ -82.65406, 9.63485 ], [ -82.65984, 9.6324 ], [ -82.66785, 9.63179 ], [ -82.67354, 9.63333 ], [ -82.67966, 9.63717 ], [ -82.68605, 9.64397 ], [ -82.69016, 9.64099 ], [ -82.69364, 9.64125 ], [ -82.6928, 9.63985 ], [ -82.69475, 9.6381 ], [ -82.69847, 9.63773 ], [ -82.7135, 9.64269 ], [ -82.71668, 9.64224 ], [ -82.7206, 9.64569 ], [ -82.7242, 9.64329 ], [ -82.72581, 9.64374 ], [ -82.73839, 9.65203 ], [ -82.74122, 9.65673 ], [ -82.74737, 9.65959 ], [ -82.75082, 9.65971 ], [ -82.7531, 9.65781 ], [ -82.75503, 9.65859 ], [ -82.75646, 9.65537 ], [ -82.75835, 9.65448 ], [ -82.76628, 9.65571 ], [ -82.77582, 9.66071 ], [ -82.78317, 9.66692 ], [ -82.79844, 9.68744 ], [ -82.81478, 9.71815 ], [ -82.81562, 9.72737 ], [ -82.81397, 9.73285 ], [ -82.81085, 9.73641 ], [ -82.8111, 9.74037 ], [ -82.80897, 9.74473 ], [ -82.81601, 9.74993 ], [ -82.8187, 9.74344 ], [ -82.82443, 9.73699 ], [ -82.82912, 9.73417 ], [ -82.8342, 9.73495 ], [ -82.83881, 9.7365 ], [ -82.84015, 9.74075 ], [ -82.84631, 9.73999 ], [ -82.85343, 9.74403 ], [ -82.85462, 9.74693 ], [ -82.86193, 9.75179 ], [ -82.86844, 9.75923 ], [ -82.88752, 9.78796 ], [ -82.89152, 9.79078 ], [ -82.89339, 9.79608 ], [ -82.91707, 9.82298 ], [ -82.95826, 9.87443 ], [ -83.02389, 9.96171 ], [ -83.02871, 9.9705 ], [ -83.03104, 9.97906 ], [ -83.03085, 9.98578 ], [ -83.0293, 9.98907 ], [ -83.02355, 9.99115 ], [ -83.02006, 9.9883 ], [ -83.02007, 9.99011 ], [ -83.02525, 9.99445 ], [ -83.02702, 9.99431 ], [ -83.02639, 9.99597 ], [ -83.02792, 9.99582 ], [ -83.02741, 9.99798 ], [ -83.02481, 9.99928 ], [ -83.02511, 10.00118 ], [ -83.02711, 10.00128 ], [ -83.02728, 10.00288 ], [ -83.03178, 10.00262 ], [ -83.03522, 10.00537 ], [ -83.03261, 10.00547 ], [ -83.03521, 10.00804 ], [ -83.03649, 10.00592 ], [ -83.03902, 10.00631 ], [ -83.0421, 10.00925 ], [ -83.04566, 10.00893 ], [ -83.04559, 10.01075 ], [ -83.05019, 10.01206 ], [ -83.05126, 10.01037 ], [ -83.05872, 10.00939 ], [ -83.05876, 10.00814 ], [ -83.05946, 10.00937 ], [ -83.06227, 10.00897 ], [ -83.06358, 10.01053 ], [ -83.0623, 10.01358 ], [ -83.06501, 10.01505 ], [ -83.06741, 10.0104 ], [ -83.06782, 10.01284 ], [ -83.07366, 10.01308 ], [ -83.07776, 10.01078 ], [ -83.08007, 10.01324 ], [ -83.07667, 10.00745 ], [ -83.07806, 9.99955 ], [ -83.07951, 10.00002 ], [ -83.07964, 10.00553 ], [ -83.07988, 10.00085 ], [ -83.08983, 10.00102 ], [ -83.09779, 10.00397 ], [ -83.10078, 10.00844 ], [ -83.10352, 10.00991 ], [ -83.10084, 10.01194 ], [ -83.09375, 10.01015 ], [ -83.09364, 10.01413 ], [ -83.10071, 10.01565 ], [ -83.10362, 10.01144 ], [ -83.10669, 10.01091 ], [ -83.11568, 10.01843 ], [ -83.13867, 10.04601 ], [ -83.18473, 10.11086 ], [ -83.18961, 10.11663 ], [ -83.19267, 10.11761 ], [ -83.21942, 10.14856 ], [ -83.2678, 10.21269 ], [ -83.27423, 10.21961 ], [ -83.27814, 10.2204 ], [ -83.27854, 10.22302 ], [ -83.30664, 10.25436 ], [ -83.34694, 10.30541 ], [ -83.35898, 10.31746 ], [ -83.38689, 10.35281 ], [ -83.39003, 10.35326 ], [ -83.39185, 10.35852 ], [ -83.40569, 10.37694 ], [ -83.43642, 10.42331 ], [ -83.45972, 10.46212 ], [ -83.48596, 10.51025 ], [ -83.52086, 10.58363 ], [ -83.52467, 10.58847 ], [ -83.52407, 10.59144 ], [ -83.52573, 10.59736 ], [ -83.54869, 10.65302 ], [ -83.56782, 10.70978 ], [ -83.577, 10.74622 ], [ -83.58569, 10.79086 ], [ -83.58422, 10.80171 ], [ -83.59391, 10.81725 ], [ -83.6192, 10.87371 ], [ -83.63617, 10.90284 ], [ -83.64311, 10.9114 ], [ -83.66703, 10.93072 ], [ -83.6703, 10.92769 ], [ -83.66966, 10.92672 ], [ -83.67061, 10.92747 ], [ -83.67573, 10.92525 ], [ -83.67625, 10.93033 ], [ -83.67282, 10.93188 ], [ -83.67448, 10.93494 ], [ -83.70278, 10.94225 ], [ -83.69796, 10.93981 ], [ -83.69755, 10.93481 ], [ -83.69261, 10.93602 ], [ -83.68875, 10.93442 ], [ -83.68091, 10.91639 ], [ -83.67849, 10.91555 ], [ -83.67776, 10.91287 ], [ -83.67567, 10.91155 ], [ -83.6793, 10.90952 ], [ -83.67634, 10.90635 ], [ -83.67658, 10.9026 ], [ -83.68295, 10.89767 ], [ -83.67847, 10.89545 ], [ -83.67567, 10.89175 ], [ -83.67099, 10.89214 ], [ -83.66832, 10.8893 ], [ -83.66736, 10.87715 ], [ -83.6708, 10.8698 ], [ -83.67505, 10.85286 ], [ -83.67045, 10.83587 ], [ -83.66227, 10.82521 ], [ -83.66063, 10.81849 ], [ -83.67017, 10.79752 ], [ -83.68284, 10.79229 ], [ -83.68995, 10.79139 ], [ -83.69622, 10.78722 ], [ -83.70147, 10.78807 ], [ -83.70777, 10.79161 ], [ -83.71488, 10.79262 ], [ -83.72374, 10.78552 ], [ -83.7319, 10.78426 ], [ -83.75452, 10.77554 ], [ -83.76076, 10.77492 ], [ -83.76442, 10.76878 ], [ -83.78307, 10.77195 ], [ -83.79222, 10.76949 ], [ -83.79552, 10.76555 ], [ -83.79954, 10.75544 ], [ -83.80637, 10.75166 ], [ -83.81125, 10.74632 ], [ -83.82373, 10.74921 ], [ -83.84087, 10.7435 ], [ -83.85302, 10.72952 ], [ -83.8585, 10.72103 ], [ -83.86279, 10.71753 ], [ -83.86971, 10.71586 ], [ -83.87706, 10.71924 ], [ -83.89036, 10.72179 ], [ -83.91377, 10.7113 ], [ -83.93132, 10.70745 ], [ -83.93555, 10.7119 ], [ -83.93647, 10.72067 ], [ -83.93994, 10.72224 ], [ -83.9532, 10.72373 ], [ -83.96642, 10.72852 ], [ -83.96889, 10.73216 ], [ -83.97157, 10.74485 ], [ -83.98121, 10.74818 ], [ -83.99027, 10.75438 ], [ -83.99383, 10.75948 ], [ -83.99873, 10.76035 ], [ -84.00523, 10.76438 ], [ -84.0094, 10.7728 ], [ -84.01423, 10.77807 ], [ -84.01754, 10.78835 ], [ -84.02359, 10.79231 ], [ -84.02785, 10.79171 ], [ -84.03129, 10.78766 ], [ -84.03324, 10.77401 ], [ -84.03571, 10.77134 ], [ -84.04159, 10.771 ], [ -84.04767, 10.77795 ], [ -84.05517, 10.77843 ], [ -84.06164, 10.77338 ], [ -84.06262, 10.7673 ], [ -84.06129, 10.76542 ], [ -84.0624, 10.76358 ], [ -84.07013, 10.75979 ], [ -84.08047, 10.7586 ], [ -84.08551, 10.76062 ], [ -84.09264, 10.76762 ], [ -84.10247, 10.77441 ], [ -84.10563, 10.77438 ], [ -84.11034, 10.76875 ], [ -84.11643, 10.76505 ], [ -84.12104, 10.7637 ], [ -84.1261, 10.76474 ], [ -84.13217, 10.77209 ], [ -84.13287, 10.78438 ], [ -84.13758, 10.7872 ], [ -84.16463, 10.78512 ], [ -84.17543, 10.78592 ], [ -84.19066, 10.78988 ], [ -84.19994, 10.7821 ], [ -84.2029, 10.78197 ], [ -84.20588, 10.78497 ], [ -84.20842, 10.79178 ], [ -84.20464, 10.79452 ], [ -84.20625, 10.7977 ], [ -84.21194, 10.80072 ], [ -84.2235, 10.80154 ], [ -84.22672, 10.80514 ], [ -84.22923, 10.81179 ], [ -84.23634, 10.8136 ], [ -84.23769, 10.81585 ], [ -84.23726, 10.81964 ], [ -84.22034, 10.82513 ], [ -84.21475, 10.8408 ], [ -84.21939, 10.85441 ], [ -84.21913, 10.86343 ], [ -84.22571, 10.874 ], [ -84.22822, 10.87544 ], [ -84.23732, 10.87635 ], [ -84.24509, 10.88555 ], [ -84.25844, 10.89131 ], [ -84.26494, 10.89078 ], [ -84.28331, 10.89362 ], [ -84.2863, 10.8971 ], [ -84.29199, 10.9116 ], [ -84.29959, 10.91638 ], [ -84.30622, 10.91572 ], [ -84.31038, 10.9219 ], [ -84.31674, 10.91608 ], [ -84.32289, 10.91789 ], [ -84.33363, 10.93477 ], [ -84.33644, 10.94602 ], [ -84.3508, 10.95069 ], [ -84.35127, 10.95438 ], [ -84.34881, 10.95945 ], [ -84.34773, 10.96646 ], [ -84.34214, 10.97125 ], [ -84.34184, 10.97369 ], [ -84.35104, 10.98785 ], [ -84.35664, 10.99218 ], [ -84.35881, 10.99574 ], [ -84.37648, 10.97769 ], [ -84.39982, 10.97524 ], [ -84.4203, 10.95543 ], [ -84.4506, 10.96099 ], [ -84.48611, 11.00103 ], [ -84.56454, 11.03304 ], [ -84.57471, 11.05119 ], [ -84.60604, 11.03844 ], [ -84.6664, 11.07247 ], [ -84.68046, 11.08431 ], [ -84.91067, 10.94403 ], [ -85.22819, 11.06287 ], [ -85.3575, 11.12626 ], [ -85.42405, 11.12914 ], [ -85.52228, 11.16766 ], [ -85.56038, 11.21015 ], [ -85.60989, 11.21965 ], [ -85.69277, 11.07944 ], [ -85.68867, 11.07644 ], [ -85.6889, 11.07524 ], [ -85.68563, 11.07451 ], [ -85.68162, 11.06823 ], [ -85.67783, 11.0687 ], [ -85.67574, 11.0667 ], [ -85.67655, 11.0661 ], [ -85.67247, 11.06569 ], [ -85.66738, 11.05219 ], [ -85.66781, 11.04315 ], [ -85.67055, 11.03785 ], [ -85.67545, 11.03234 ], [ -85.68036, 11.03176 ], [ -85.67962, 11.03096 ], [ -85.68881, 11.0266 ], [ -85.70278, 11.02803 ], [ -85.70755, 11.03005 ], [ -85.71263, 11.0266 ], [ -85.71823, 11.0323 ], [ -85.71765, 11.03613 ], [ -85.72006, 11.03819 ], [ -85.72364, 11.04649 ], [ -85.72602, 11.04695 ], [ -85.72743, 11.04909 ], [ -85.73101, 11.04779 ], [ -85.73217, 11.04587 ], [ -85.73518, 11.04785 ], [ -85.73643, 11.04436 ], [ -85.74038, 11.04368 ], [ -85.73873, 11.04096 ], [ -85.74006, 11.03964 ], [ -85.73837, 11.03796 ], [ -85.73605, 11.03875 ], [ -85.73443, 11.03751 ], [ -85.7356, 11.03213 ], [ -85.74569, 11.03406 ], [ -85.74515, 11.03289 ], [ -85.74665, 11.03261 ], [ -85.74515, 11.03078 ], [ -85.74646, 11.02795 ], [ -85.74876, 11.02674 ], [ -85.7505, 11.02762 ], [ -85.75451, 11.02224 ], [ -85.75212, 11.02019 ], [ -85.75235, 11.01822 ], [ -85.74716, 11.01604 ], [ -85.7455, 11.01326 ], [ -85.7444, 11.01425 ], [ -85.74195, 11.01294 ], [ -85.73664, 11.00815 ], [ -85.73272, 11.00792 ], [ -85.73076, 11.00622 ], [ -85.72524, 11.00659 ], [ -85.71714, 10.99931 ], [ -85.71044, 10.99686 ], [ -85.70888, 10.99345 ], [ -85.71063, 10.99221 ], [ -85.70974, 10.98947 ], [ -85.70651, 10.98885 ], [ -85.70252, 10.98544 ], [ -85.70035, 10.98612 ], [ -85.68885, 10.97639 ], [ -85.6886, 10.968 ], [ -85.69171, 10.96344 ], [ -85.69625, 10.96548 ], [ -85.69851, 10.96264 ], [ -85.70256, 10.96494 ], [ -85.70182, 10.96238 ], [ -85.70363, 10.95988 ], [ -85.70511, 10.96038 ], [ -85.70483, 10.95719 ], [ -85.70721, 10.95461 ], [ -85.71446, 10.95672 ], [ -85.71503, 10.9537 ], [ -85.71985, 10.95634 ], [ -85.71946, 10.95437 ], [ -85.71687, 10.95296 ], [ -85.71263, 10.95127 ], [ -85.70922, 10.95201 ], [ -85.70469, 10.94857 ], [ -85.7014, 10.95011 ], [ -85.70113, 10.94834 ], [ -85.70281, 10.94815 ], [ -85.70092, 10.94338 ], [ -85.70412, 10.93559 ], [ -85.70559, 10.93466 ], [ -85.71063, 10.93681 ], [ -85.7122, 10.93492 ], [ -85.71186, 10.93265 ], [ -85.71423, 10.9315 ], [ -85.71163, 10.92651 ], [ -85.71781, 10.92365 ], [ -85.72177, 10.92418 ], [ -85.72305, 10.92717 ], [ -85.72192, 10.93004 ], [ -85.72016, 10.93152 ], [ -85.71982, 10.93002 ], [ -85.71893, 10.93088 ], [ -85.72045, 10.93264 ], [ -85.72002, 10.93476 ], [ -85.72293, 10.93478 ], [ -85.72826, 10.93838 ], [ -85.72867, 10.93449 ], [ -85.7322, 10.93454 ], [ -85.73403, 10.93693 ], [ -85.73273, 10.93909 ], [ -85.73386, 10.93952 ], [ -85.73627, 10.93795 ], [ -85.74543, 10.93895 ], [ -85.74719, 10.93658 ], [ -85.74879, 10.93881 ], [ -85.75042, 10.93686 ], [ -85.7534, 10.93916 ], [ -85.75927, 10.93927 ], [ -85.76223, 10.93777 ], [ -85.76505, 10.93835 ], [ -85.76471, 10.93685 ], [ -85.76639, 10.93553 ], [ -85.76848, 10.93628 ], [ -85.76945, 10.93926 ], [ -85.77166, 10.9374 ], [ -85.77288, 10.93949 ], [ -85.77741, 10.94012 ], [ -85.77911, 10.93939 ], [ -85.77883, 10.93467 ], [ -85.78059, 10.93411 ], [ -85.78191, 10.93462 ], [ -85.78188, 10.93665 ], [ -85.78358, 10.93568 ], [ -85.78468, 10.93832 ], [ -85.78648, 10.93855 ], [ -85.78677, 10.93727 ], [ -85.78929, 10.93684 ], [ -85.78797, 10.93323 ], [ -85.78957, 10.93191 ], [ -85.79438, 10.93169 ], [ -85.79631, 10.9346 ], [ -85.79995, 10.93206 ], [ -85.79818, 10.92741 ], [ -85.79091, 10.92389 ], [ -85.78999, 10.92004 ], [ -85.78563, 10.9159 ], [ -85.78634, 10.91314 ], [ -85.79018, 10.90977 ], [ -85.79434, 10.90916 ], [ -85.80127, 10.91189 ], [ -85.80588, 10.91519 ], [ -85.8076, 10.9184 ], [ -85.81497, 10.91947 ], [ -85.81838, 10.92241 ], [ -85.81815, 10.92601 ], [ -85.81985, 10.92983 ], [ -85.81051, 10.93562 ], [ -85.81542, 10.9394 ], [ -85.81691, 10.94526 ], [ -85.81879, 10.94369 ], [ -85.82063, 10.946 ], [ -85.82311, 10.94589 ], [ -85.8236, 10.94323 ], [ -85.82501, 10.94268 ], [ -85.82669, 10.94576 ], [ -85.82882, 10.94434 ], [ -85.83107, 10.94532 ], [ -85.83206, 10.94325 ], [ -85.83458, 10.94383 ], [ -85.83653, 10.94668 ], [ -85.83808, 10.9442 ], [ -85.8446, 10.94539 ], [ -85.84657, 10.94423 ], [ -85.85461, 10.94505 ], [ -85.85815, 10.94834 ], [ -85.85897, 10.94702 ], [ -85.86251, 10.94753 ], [ -85.86383, 10.95004 ], [ -85.86587, 10.94842 ], [ -85.86869, 10.94881 ], [ -85.86936, 10.95079 ], [ -85.87275, 10.94909 ], [ -85.88444, 10.94989 ], [ -85.88508, 10.94887 ], [ -85.87695, 10.94478 ], [ -85.86328, 10.9406 ], [ -85.86123, 10.93282 ], [ -85.8644, 10.92669 ], [ -85.86852, 10.92668 ], [ -85.87094, 10.92328 ], [ -85.87518, 10.92191 ], [ -85.88122, 10.92297 ], [ -85.8801, 10.92112 ], [ -85.8814, 10.91972 ], [ -85.88714, 10.91728 ], [ -85.88827, 10.91801 ], [ -85.88865, 10.91671 ], [ -85.89893, 10.91255 ], [ -85.90016, 10.91033 ], [ -85.90686, 10.90904 ], [ -85.9135, 10.9103 ], [ -85.91425, 10.90708 ], [ -85.91732, 10.90636 ], [ -85.91801, 10.90477 ], [ -85.92593, 10.90366 ], [ -85.92672, 10.90129 ], [ -85.92918, 10.90031 ], [ -85.93327, 10.9004 ], [ -85.93838, 10.89588 ], [ -85.94595, 10.89445 ], [ -85.95027, 10.88963 ], [ -85.93497, 10.89472 ], [ -85.93218, 10.89363 ], [ -85.92917, 10.89525 ], [ -85.9237, 10.89548 ], [ -85.9166, 10.89912 ], [ -85.91412, 10.89695 ], [ -85.90696, 10.89569 ], [ -85.90324, 10.88941 ], [ -85.89026, 10.88643 ], [ -85.87851, 10.88075 ], [ -85.87722, 10.88144 ], [ -85.87459, 10.87804 ], [ -85.87389, 10.8789 ], [ -85.87184, 10.87751 ], [ -85.87024, 10.8787 ], [ -85.86691, 10.8769 ], [ -85.86502, 10.87275 ], [ -85.85774, 10.86508 ], [ -85.85407, 10.85306 ], [ -85.85265, 10.85505 ], [ -85.84664, 10.85664 ], [ -85.83963, 10.85572 ], [ -85.83384, 10.85248 ], [ -85.8286, 10.85425 ], [ -85.82365, 10.85204 ], [ -85.82106, 10.85326 ], [ -85.81655, 10.85095 ], [ -85.80803, 10.84948 ], [ -85.80311, 10.84971 ], [ -85.79839, 10.85356 ], [ -85.79549, 10.85295 ], [ -85.78889, 10.84692 ], [ -85.78835, 10.8396 ], [ -85.79141, 10.8361 ], [ -85.7943, 10.83701 ], [ -85.80148, 10.83391 ], [ -85.80177, 10.82584 ], [ -85.79486, 10.82154 ], [ -85.79227, 10.81523 ], [ -85.77776, 10.81376 ], [ -85.76338, 10.80318 ], [ -85.76152, 10.80378 ], [ -85.76128, 10.80634 ], [ -85.75776, 10.81052 ], [ -85.74214, 10.81893 ], [ -85.73357, 10.81575 ], [ -85.73051, 10.81246 ], [ -85.72944, 10.81385 ], [ -85.727, 10.81304 ], [ -85.72293, 10.80891 ], [ -85.72156, 10.81145 ], [ -85.71844, 10.81185 ], [ -85.71231, 10.80935 ], [ -85.70909, 10.80599 ], [ -85.70559, 10.80751 ], [ -85.70305, 10.80683 ], [ -85.6965, 10.79982 ], [ -85.688, 10.80323 ], [ -85.68437, 10.80121 ], [ -85.66525, 10.77715 ], [ -85.65766, 10.76356 ], [ -85.65714, 10.75924 ], [ -85.66226, 10.74835 ], [ -85.66332, 10.73733 ], [ -85.66077, 10.73249 ], [ -85.66206, 10.72043 ], [ -85.65669, 10.70396 ], [ -85.6558, 10.69791 ], [ -85.65716, 10.69464 ], [ -85.65303, 10.67729 ], [ -85.65528, 10.66861 ], [ -85.65811, 10.66415 ], [ -85.66293, 10.66439 ], [ -85.66836, 10.66251 ], [ -85.67109, 10.66338 ], [ -85.67195, 10.6615 ], [ -85.67604, 10.66142 ], [ -85.67548, 10.6598 ], [ -85.67109, 10.65977 ], [ -85.67025, 10.6563 ], [ -85.67417, 10.65107 ], [ -85.67911, 10.65239 ], [ -85.6804, 10.65035 ], [ -85.67968, 10.64888 ], [ -85.68333, 10.64754 ], [ -85.68304, 10.64516 ], [ -85.68489, 10.64447 ], [ -85.68299, 10.64248 ], [ -85.67987, 10.64202 ], [ -85.67437, 10.64304 ], [ -85.67211, 10.64506 ], [ -85.67054, 10.64209 ], [ -85.67547, 10.63558 ], [ -85.68002, 10.63356 ], [ -85.68131, 10.6352 ], [ -85.68387, 10.63528 ], [ -85.68482, 10.63103 ], [ -85.68727, 10.63035 ], [ -85.68835, 10.63184 ], [ -85.68764, 10.62944 ], [ -85.69136, 10.62506 ], [ -85.68824, 10.62494 ], [ -85.68549, 10.62234 ], [ -85.68686, 10.61628 ], [ -85.68888, 10.61547 ], [ -85.68826, 10.61312 ], [ -85.69162, 10.61184 ], [ -85.69482, 10.61274 ], [ -85.69922, 10.61071 ], [ -85.69087, 10.60587 ], [ -85.68961, 10.61032 ], [ -85.68512, 10.61166 ], [ -85.67922, 10.61118 ], [ -85.67688, 10.62034 ], [ -85.67401, 10.62282 ], [ -85.6755, 10.62678 ], [ -85.67413, 10.63158 ], [ -85.66313, 10.63585 ], [ -85.6567, 10.64057 ], [ -85.65648, 10.64246 ], [ -85.65197, 10.64133 ], [ -85.65187, 10.64003 ], [ -85.65141, 10.64058 ], [ -85.65255, 10.64313 ], [ -85.64716, 10.64242 ], [ -85.63512, 10.63559 ], [ -85.63079, 10.63137 ], [ -85.62789, 10.62493 ], [ -85.63224, 10.61795 ], [ -85.64077, 10.61401 ], [ -85.64136, 10.60803 ], [ -85.64438, 10.60393 ], [ -85.64687, 10.60275 ], [ -85.64906, 10.60443 ], [ -85.65036, 10.60006 ], [ -85.64952, 10.59419 ], [ -85.65254, 10.58926 ], [ -85.66287, 10.58765 ], [ -85.66451, 10.59314 ], [ -85.66834, 10.59083 ], [ -85.66942, 10.59321 ], [ -85.67182, 10.59043 ], [ -85.67489, 10.59246 ], [ -85.67872, 10.58977 ], [ -85.68142, 10.59149 ], [ -85.68003, 10.58895 ], [ -85.68112, 10.58783 ], [ -85.67908, 10.5877 ], [ -85.67922, 10.58483 ], [ -85.67661, 10.58061 ], [ -85.68096, 10.57279 ], [ -85.68458, 10.57044 ], [ -85.68697, 10.57218 ], [ -85.69254, 10.5723 ], [ -85.69478, 10.57404 ], [ -85.69746, 10.57323 ], [ -85.69846, 10.57433 ], [ -85.69976, 10.57008 ], [ -85.69307, 10.5679 ], [ -85.69065, 10.56429 ], [ -85.69335, 10.55606 ], [ -85.69971, 10.55109 ], [ -85.70625, 10.55033 ], [ -85.70942, 10.55552 ], [ -85.71389, 10.55616 ], [ -85.71544, 10.55203 ], [ -85.71832, 10.55145 ], [ -85.71813, 10.54893 ], [ -85.72073, 10.54663 ], [ -85.72503, 10.54634 ], [ -85.72583, 10.5491 ], [ -85.72835, 10.54403 ], [ -85.73075, 10.54483 ], [ -85.73238, 10.54303 ], [ -85.73513, 10.54412 ], [ -85.73575, 10.54152 ], [ -85.73801, 10.54074 ], [ -85.73911, 10.53818 ], [ -85.74268, 10.53781 ], [ -85.74294, 10.53528 ], [ -85.74447, 10.53558 ], [ -85.74769, 10.53176 ], [ -85.75287, 10.52981 ], [ -85.75853, 10.53043 ], [ -85.7652, 10.53483 ], [ -85.76903, 10.54223 ], [ -85.77006, 10.54033 ], [ -85.77399, 10.54008 ], [ -85.77602, 10.54137 ], [ -85.77571, 10.54347 ], [ -85.77862, 10.54415 ], [ -85.77878, 10.53817 ], [ -85.78282, 10.53789 ], [ -85.7831, 10.53526 ], [ -85.78089, 10.53403 ], [ -85.78226, 10.53291 ], [ -85.7816, 10.53036 ], [ -85.78609, 10.52903 ], [ -85.78463, 10.5276 ], [ -85.78709, 10.52338 ], [ -85.78997, 10.52478 ], [ -85.79168, 10.52388 ], [ -85.78924, 10.52169 ], [ -85.79105, 10.51773 ], [ -85.79274, 10.51684 ], [ -85.80054, 10.51994 ], [ -85.80051, 10.51728 ], [ -85.80296, 10.51807 ], [ -85.80904, 10.5144 ], [ -85.8113, 10.51735 ], [ -85.81172, 10.51496 ], [ -85.80989, 10.51304 ], [ -85.80745, 10.51341 ], [ -85.80312, 10.50949 ], [ -85.79908, 10.50912 ], [ -85.79793, 10.50558 ], [ -85.7987, 10.50189 ], [ -85.80501, 10.49861 ], [ -85.80224, 10.49786 ], [ -85.80213, 10.49658 ], [ -85.80004, 10.49781 ], [ -85.79896, 10.49529 ], [ -85.7967, 10.49592 ], [ -85.79463, 10.4944 ], [ -85.79376, 10.49063 ], [ -85.79664, 10.48791 ], [ -85.79811, 10.4825 ], [ -85.79663, 10.4811 ], [ -85.7911, 10.4832 ], [ -85.78672, 10.48031 ], [ -85.7879, 10.47731 ], [ -85.78111, 10.47601 ], [ -85.77829, 10.46838 ], [ -85.77945, 10.46536 ], [ -85.77762, 10.4647 ], [ -85.77636, 10.46179 ], [ -85.77721, 10.45676 ], [ -85.77419, 10.45832 ], [ -85.77174, 10.45543 ], [ -85.77285, 10.44813 ], [ -85.77775, 10.4403 ], [ -85.78468, 10.43726 ], [ -85.78708, 10.43772 ], [ -85.78721, 10.4391 ], [ -85.78763, 10.4378 ], [ -85.78976, 10.43846 ], [ -85.78702, 10.43942 ], [ -85.78892, 10.43991 ], [ -85.7883, 10.44145 ], [ -85.78731, 10.44072 ], [ -85.78884, 10.44256 ], [ -85.79997, 10.44597 ], [ -85.79922, 10.44306 ], [ -85.79594, 10.44254 ], [ -85.7942, 10.44052 ], [ -85.79304, 10.43233 ], [ -85.79589, 10.42921 ], [ -85.79105, 10.42512 ], [ -85.7905, 10.4231 ], [ -85.79189, 10.4203 ], [ -85.7946, 10.4192 ], [ -85.79477, 10.41459 ], [ -85.7991, 10.40699 ], [ -85.8015, 10.40483 ], [ -85.80337, 10.40529 ], [ -85.80394, 10.4031 ], [ -85.80773, 10.40054 ], [ -85.81498, 10.39989 ], [ -85.81988, 10.40213 ], [ -85.82092, 10.41007 ], [ -85.82274, 10.409 ], [ -85.82397, 10.41065 ], [ -85.82516, 10.40928 ], [ -85.82644, 10.41133 ], [ -85.82655, 10.41097 ], [ -85.82615, 10.40872 ], [ -85.82586, 10.40819 ], [ -85.82601, 10.40777 ], [ -85.82574, 10.40731 ], [ -85.82731, 10.40554 ], [ -85.82644, 10.4035 ], [ -85.82783, 10.39902 ], [ -85.83272, 10.39681 ], [ -85.83432, 10.39927 ], [ -85.83672, 10.39997 ], [ -85.83508, 10.39764 ], [ -85.8355, 10.39313 ], [ -85.84075, 10.38475 ], [ -85.84357, 10.38367 ], [ -85.84547, 10.38482 ], [ -85.8444, 10.38342 ], [ -85.84604, 10.38117 ], [ -85.84603, 10.3774 ], [ -85.84759, 10.37687 ], [ -85.84709, 10.3721 ], [ -85.8501, 10.37042 ], [ -85.85339, 10.37126 ], [ -85.85361, 10.36925 ], [ -85.85691, 10.36664 ], [ -85.85935, 10.3685 ], [ -85.86412, 10.36603 ], [ -85.86723, 10.36896 ], [ -85.86712, 10.36757 ], [ -85.86534, 10.3667 ], [ -85.86707, 10.36579 ], [ -85.86652, 10.36382 ], [ -85.87548, 10.35681 ], [ -85.87556, 10.35532 ], [ -85.87329, 10.35383 ], [ -85.87409, 10.35154 ], [ -85.87268, 10.34898 ], [ -85.86852, 10.3488 ], [ -85.8664, 10.34661 ], [ -85.86524, 10.34855 ], [ -85.86257, 10.34819 ], [ -85.86141, 10.34439 ], [ -85.85911, 10.34534 ], [ -85.85695, 10.34415 ], [ -85.85446, 10.33846 ], [ -85.84615, 10.32977 ], [ -85.84117, 10.32025 ], [ -85.84003, 10.31371 ], [ -85.84067, 10.30478 ], [ -85.84261, 10.30314 ], [ -85.84146, 10.30265 ], [ -85.84545, 10.29711 ], [ -85.85111, 10.29526 ], [ -85.85194, 10.29689 ], [ -85.85388, 10.29304 ], [ -85.85562, 10.29279 ], [ -85.85392, 10.29192 ], [ -85.8491, 10.27736 ], [ -85.85105, 10.27221 ], [ -85.85005, 10.26953 ], [ -85.8519, 10.26978 ], [ -85.85137, 10.26828 ], [ -85.85353, 10.2644 ], [ -85.85282, 10.2626 ], [ -85.85486, 10.26263 ], [ -85.85246, 10.25996 ], [ -85.85376, 10.25694 ], [ -85.85176, 10.25512 ], [ -85.85298, 10.2551 ], [ -85.85379, 10.25272 ], [ -85.85142, 10.25219 ], [ -85.8525, 10.25056 ], [ -85.8479, 10.2457 ], [ -85.84814, 10.24212 ], [ -85.84474, 10.24062 ], [ -85.8423, 10.23707 ], [ -85.8373, 10.22604 ], [ -85.83854, 10.22037 ], [ -85.83616, 10.21544 ], [ -85.83775, 10.21037 ], [ -85.83552, 10.20863 ], [ -85.8374, 10.20437 ], [ -85.83791, 10.20566 ], [ -85.83648, 10.20675 ], [ -85.84018, 10.20826 ], [ -85.84079, 10.20363 ], [ -85.83069, 10.19493 ], [ -85.82536, 10.18556 ], [ -85.82422, 10.18573 ], [ -85.82319, 10.18169 ], [ -85.81834, 10.17855 ], [ -85.81846, 10.17358 ], [ -85.80858, 10.15974 ], [ -85.80826, 10.15667 ], [ -85.81003, 10.15576 ], [ -85.80801, 10.15507 ], [ -85.80917, 10.15002 ], [ -85.80458, 10.14711 ], [ -85.80047, 10.14127 ], [ -85.80008, 10.13811 ], [ -85.80122, 10.13719 ], [ -85.79314, 10.11808 ], [ -85.7951, 10.1098 ], [ -85.78866, 10.10297 ], [ -85.78719, 10.0986 ], [ -85.78756, 10.09713 ], [ -85.78919, 10.09712 ], [ -85.78963, 10.09369 ], [ -85.78279, 10.0907 ], [ -85.78103, 10.08584 ], [ -85.77883, 10.08483 ], [ -85.7803, 10.08266 ], [ -85.77849, 10.08242 ], [ -85.77766, 10.07924 ], [ -85.77388, 10.07725 ], [ -85.76969, 10.07237 ], [ -85.76925, 10.07035 ], [ -85.77114, 10.0678 ], [ -85.76994, 10.06808 ], [ -85.7701, 10.06673 ], [ -85.76732, 10.06778 ], [ -85.76538, 10.06503 ], [ -85.7678, 10.06258 ], [ -85.76714, 10.06124 ], [ -85.76373, 10.06202 ], [ -85.76316, 10.05809 ], [ -85.76157, 10.05897 ], [ -85.76134, 10.05697 ], [ -85.75573, 10.05435 ], [ -85.75069, 10.04885 ], [ -85.74964, 10.0452 ], [ -85.74789, 10.04411 ], [ -85.7485, 10.04297 ], [ -85.7431, 10.0358 ], [ -85.7442, 10.03436 ], [ -85.74204, 10.03163 ], [ -85.74449, 10.03043 ], [ -85.74413, 10.02941 ], [ -85.74263, 10.03021 ], [ -85.74234, 10.02916 ], [ -85.74145, 10.0313 ], [ -85.7397, 10.03094 ], [ -85.73786, 10.028 ], [ -85.74011, 10.02745 ], [ -85.73981, 10.02616 ], [ -85.73771, 10.02508 ], [ -85.73657, 10.02666 ], [ -85.73069, 10.02356 ], [ -85.72771, 10.01907 ], [ -85.72857, 10.01684 ], [ -85.72459, 10.01278 ], [ -85.72218, 10.01359 ], [ -85.7079, 10.00053 ], [ -85.68277, 9.97053 ], [ -85.67959, 9.96411 ], [ -85.6814, 9.96247 ], [ -85.67526, 9.95538 ], [ -85.67637, 9.9539 ], [ -85.67463, 9.95132 ], [ -85.67833, 9.94957 ], [ -85.67344, 9.94715 ], [ -85.67001, 9.94332 ], [ -85.66257, 9.92907 ], [ -85.66116, 9.92089 ], [ -85.66232, 9.9113 ], [ -85.66535, 9.90803 ], [ -85.67137, 9.90806 ], [ -85.66702, 9.90285 ], [ -85.65813, 9.90426 ], [ -85.65416, 9.90235 ], [ -85.65234, 9.89916 ], [ -85.65072, 9.89997 ], [ -85.65299, 9.90303 ], [ -85.65154, 9.90678 ], [ -85.6456, 9.90945 ], [ -85.64081, 9.90935 ], [ -85.63529, 9.90632 ], [ -85.63288, 9.90238 ], [ -85.62944, 9.9013 ], [ -85.62778, 9.89552 ], [ -85.63009, 9.894 ], [ -85.62799, 9.89391 ], [ -85.62472, 9.89101 ], [ -85.62561, 9.89239 ], [ -85.62377, 9.89313 ], [ -85.6099, 9.89116 ], [ -85.60603, 9.88702 ], [ -85.59922, 9.89063 ], [ -85.59429, 9.89087 ], [ -85.59208, 9.88799 ], [ -85.59359, 9.88584 ], [ -85.58947, 9.88489 ], [ -85.58944, 9.88321 ], [ -85.58084, 9.88118 ], [ -85.58017, 9.8825 ], [ -85.57557, 9.88204 ], [ -85.56931, 9.87668 ], [ -85.56555, 9.88018 ], [ -85.55924, 9.88042 ], [ -85.55221, 9.8782 ], [ -85.54989, 9.87621 ], [ -85.55088, 9.87547 ], [ -85.54747, 9.87385 ], [ -85.54131, 9.87312 ], [ -85.54003, 9.87484 ], [ -85.53428, 9.87376 ], [ -85.52728, 9.88016 ], [ -85.52046, 9.88049 ], [ -85.51652, 9.87852 ], [ -85.50816, 9.87073 ], [ -85.50773, 9.86675 ], [ -85.51059, 9.86366 ], [ -85.5091, 9.86045 ], [ -85.50602, 9.86066 ], [ -85.50525, 9.86264 ], [ -85.50228, 9.86395 ], [ -85.49894, 9.86177 ], [ -85.50018, 9.86588 ], [ -85.49918, 9.8681 ], [ -85.49316, 9.87113 ], [ -85.48825, 9.8708 ], [ -85.48369, 9.86779 ], [ -85.48408, 9.86511 ], [ -85.48276, 9.86339 ], [ -85.48571, 9.86198 ], [ -85.48689, 9.8591 ], [ -85.48183, 9.85686 ], [ -85.47966, 9.85737 ], [ -85.47738, 9.8555 ], [ -85.47768, 9.85404 ], [ -85.47481, 9.85437 ], [ -85.47443, 9.85195 ], [ -85.4701, 9.85215 ], [ -85.46726, 9.84932 ], [ -85.46641, 9.85067 ], [ -85.46245, 9.84949 ], [ -85.45992, 9.85909 ], [ -85.45769, 9.85927 ], [ -85.45696, 9.8608 ], [ -85.45261, 9.85865 ], [ -85.45292, 9.8611 ], [ -85.44965, 9.86226 ], [ -85.43011, 9.85904 ], [ -85.42669, 9.85736 ], [ -85.42652, 9.85291 ], [ -85.42534, 9.85218 ], [ -85.41279, 9.85145 ], [ -85.41152, 9.8495 ], [ -85.40988, 9.85029 ], [ -85.40739, 9.8479 ], [ -85.40343, 9.8471 ], [ -85.40216, 9.84788 ], [ -85.40398, 9.85067 ], [ -85.40024, 9.85286 ], [ -85.38434, 9.84763 ], [ -85.3803, 9.84863 ], [ -85.37574, 9.84675 ], [ -85.37516, 9.84494 ], [ -85.37316, 9.8446 ], [ -85.37164, 9.84177 ], [ -85.36987, 9.84238 ], [ -85.36873, 9.84016 ], [ -85.36555, 9.84151 ], [ -85.35978, 9.83933 ], [ -85.33675, 9.82652 ], [ -85.33296, 9.82219 ], [ -85.3341, 9.8212 ], [ -85.33296, 9.82052 ], [ -85.3334, 9.81854 ], [ -85.33612, 9.81735 ], [ -85.33491, 9.81528 ], [ -85.33122, 9.81649 ], [ -85.32823, 9.81502 ], [ -85.32322, 9.81723 ], [ -85.30261, 9.80668 ], [ -85.28036, 9.7919 ], [ -85.27203, 9.7839 ], [ -85.26567, 9.77344 ], [ -85.2678, 9.76778 ], [ -85.27374, 9.7645 ], [ -85.27291, 9.76291 ], [ -85.27521, 9.75985 ], [ -85.27115, 9.75819 ], [ -85.27027, 9.75925 ], [ -85.26705, 9.75859 ], [ -85.24833, 9.74769 ], [ -85.23747, 9.73911 ], [ -85.22372, 9.72515 ], [ -85.21737, 9.7144 ], [ -85.21522, 9.70595 ], [ -85.21106, 9.70206 ], [ -85.20301, 9.68957 ], [ -85.20293, 9.68421 ], [ -85.20508, 9.68262 ], [ -85.20079, 9.67701 ], [ -85.20153, 9.67399 ], [ -85.19735, 9.67181 ], [ -85.19821, 9.67004 ], [ -85.19677, 9.66757 ], [ -85.19546, 9.66784 ], [ -85.18706, 9.66014 ], [ -85.18552, 9.65787 ], [ -85.18675, 9.65782 ], [ -85.18449, 9.6573 ], [ -85.18362, 9.65476 ], [ -85.17918, 9.65171 ], [ -85.17933, 9.64972 ], [ -85.17271, 9.64535 ], [ -85.16558, 9.63624 ], [ -85.1629, 9.63545 ], [ -85.16212, 9.63344 ], [ -85.15056, 9.62387 ], [ -85.14624, 9.61555 ], [ -85.14452, 9.61606 ], [ -85.14499, 9.61045 ], [ -85.14692, 9.60968 ], [ -85.14602, 9.60706 ], [ -85.14332, 9.60705 ], [ -85.1447, 9.60348 ], [ -85.14242, 9.59915 ], [ -85.14496, 9.59637 ], [ -85.14322, 9.5946 ], [ -85.14599, 9.59371 ], [ -85.14304, 9.59136 ], [ -85.14365, 9.58758 ], [ -85.14236, 9.58653 ], [ -85.14302, 9.58363 ], [ -85.14125, 9.58314 ], [ -85.14158, 9.58025 ], [ -85.13954, 9.58097 ], [ -85.13952, 9.5785 ], [ -85.13817, 9.57948 ], [ -85.13886, 9.57832 ], [ -85.13658, 9.57774 ], [ -85.13622, 9.57617 ], [ -85.13471, 9.57747 ], [ -85.13277, 9.57542 ], [ -85.1337, 9.57268 ], [ -85.13104, 9.57162 ], [ -85.12578, 9.57553 ], [ -85.12176, 9.57395 ], [ -85.12105, 9.57087 ], [ -85.11838, 9.57048 ], [ -85.11459, 9.56528 ], [ -85.11783, 9.56174 ], [ -85.11764, 9.55991 ], [ -85.11337, 9.55832 ], [ -85.11049, 9.55451 ], [ -85.10916, 9.55609 ], [ -85.11073, 9.55693 ], [ -85.11003, 9.56091 ], [ -85.11159, 9.56156 ], [ -85.10847, 9.56641 ], [ -85.10271, 9.56933 ], [ -85.1002, 9.56781 ], [ -85.09858, 9.56948 ], [ -85.09602, 9.56707 ], [ -85.09101, 9.57048 ], [ -85.09069, 9.57948 ], [ -85.0926, 9.58594 ], [ -85.08868, 9.58927 ], [ -85.08537, 9.59494 ], [ -85.08498, 9.5985 ], [ -85.08265, 9.59852 ], [ -85.08278, 9.60335 ], [ -85.07655, 9.61332 ], [ -85.07543, 9.62347 ], [ -85.07783, 9.6284 ], [ -85.07282, 9.63389 ], [ -85.07335, 9.64167 ], [ -85.07151, 9.64721 ], [ -85.06713, 9.65174 ], [ -85.06778, 9.65392 ], [ -85.05865, 9.65985 ], [ -85.05729, 9.66433 ], [ -85.05493, 9.66651 ], [ -85.0432, 9.67159 ], [ -85.04034, 9.67125 ], [ -85.04037, 9.6747 ], [ -85.03753, 9.67569 ], [ -85.03932, 9.67633 ], [ -85.03941, 9.67814 ], [ -85.03691, 9.68132 ], [ -85.0247, 9.68607 ], [ -85.02049, 9.68578 ], [ -85.01881, 9.68734 ], [ -85.00707, 9.68957 ], [ -85.00377, 9.69211 ], [ -85.00338, 9.69533 ], [ -85.0013, 9.69558 ], [ -84.99757, 9.6998 ], [ -84.99859, 9.7018 ], [ -84.99374, 9.7044 ], [ -84.99762, 9.70764 ], [ -84.99845, 9.71195 ], [ -85.00249, 9.71336 ], [ -85.01438, 9.71328 ], [ -85.01547, 9.71448 ], [ -85.01656, 9.72543 ], [ -85.01411, 9.73401 ], [ -85.00965, 9.74003 ], [ -85.0043, 9.74446 ], [ -84.99336, 9.74854 ], [ -84.99088, 9.74716 ], [ -84.99216, 9.74545 ], [ -84.98971, 9.74586 ], [ -84.98558, 9.7433 ], [ -84.98535, 9.74125 ], [ -84.9875, 9.74017 ], [ -84.97835, 9.74012 ], [ -84.977, 9.7382 ], [ -84.97796, 9.7368 ], [ -84.97687, 9.73751 ], [ -84.97591, 9.73574 ], [ -84.97699, 9.73371 ], [ -84.97349, 9.73065 ], [ -84.96895, 9.73139 ], [ -84.96463, 9.72871 ], [ -84.9613, 9.72992 ], [ -84.9591, 9.72847 ], [ -84.95885, 9.72652 ], [ -84.95739, 9.72802 ], [ -84.95474, 9.72775 ], [ -84.95374, 9.73151 ], [ -84.95003, 9.73329 ], [ -84.95301, 9.73517 ], [ -84.95092, 9.73845 ], [ -84.95174, 9.74225 ], [ -84.95593, 9.74745 ], [ -84.953, 9.75324 ], [ -84.95433, 9.75677 ], [ -84.95107, 9.75956 ], [ -84.94693, 9.75822 ], [ -84.94675, 9.76018 ], [ -84.94241, 9.76118 ], [ -84.93603, 9.75698 ], [ -84.93329, 9.75691 ], [ -84.93393, 9.75839 ], [ -84.93206, 9.76256 ], [ -84.92839, 9.76395 ], [ -84.93085, 9.77191 ], [ -84.92927, 9.77516 ], [ -84.92604, 9.77639 ], [ -84.9182, 9.78506 ], [ -84.92061, 9.78472 ], [ -84.92322, 9.78631 ], [ -84.923, 9.7922 ], [ -84.91896, 9.79471 ], [ -84.90072, 9.79802 ], [ -84.90352, 9.80188 ], [ -84.90045, 9.80978 ], [ -84.8966, 9.81445 ], [ -84.89495, 9.81528 ], [ -84.88722, 9.81268 ], [ -84.87971, 9.81227 ], [ -84.87716, 9.81632 ], [ -84.87936, 9.81606 ], [ -84.88019, 9.81811 ], [ -84.87742, 9.82199 ], [ -84.87505, 9.82369 ], [ -84.86841, 9.82338 ], [ -84.86474, 9.82651 ], [ -84.86379, 9.82921 ], [ -84.8655, 9.83014 ], [ -84.8689, 9.82802 ], [ -84.87158, 9.83071 ], [ -84.89031, 9.83379 ], [ -84.8922, 9.83271 ], [ -84.89506, 9.83426 ], [ -84.89915, 9.8307 ], [ -84.90249, 9.82944 ], [ -84.90379, 9.83031 ], [ -84.90437, 9.82875 ], [ -84.91084, 9.82717 ], [ -84.91451, 9.82457 ], [ -84.91791, 9.82711 ], [ -84.91967, 9.82534 ], [ -84.92088, 9.82554 ], [ -84.91999, 9.82635 ], [ -84.91936, 9.82618 ], [ -84.91995, 9.8272 ], [ -84.92453, 9.82938 ], [ -84.92469, 9.83111 ], [ -84.92824, 9.83321 ], [ -84.92874, 9.83646 ], [ -84.9331, 9.83613 ], [ -84.93002, 9.83985 ], [ -84.92317, 9.84256 ], [ -84.92118, 9.84479 ], [ -84.92403, 9.84812 ], [ -84.92316, 9.85138 ], [ -84.91845, 9.85328 ], [ -84.91652, 9.85199 ], [ -84.91581, 9.8542 ], [ -84.91205, 9.85545 ], [ -84.9102, 9.8532 ], [ -84.9058, 9.85316 ], [ -84.90866, 9.85479 ], [ -84.90904, 9.85904 ], [ -84.91428, 9.85874 ], [ -84.91587, 9.86156 ], [ -84.91984, 9.86076 ], [ -84.92106, 9.86222 ], [ -84.92003, 9.86332 ], [ -84.92181, 9.86466 ], [ -84.91963, 9.86701 ], [ -84.92276, 9.8722 ], [ -84.92373, 9.87134 ], [ -84.93151, 9.87537 ], [ -84.93355, 9.87516 ], [ -84.93406, 9.87854 ], [ -84.93567, 9.87834 ], [ -84.93814, 9.88132 ], [ -84.93539, 9.88698 ], [ -84.93574, 9.88959 ], [ -84.93318, 9.89089 ], [ -84.93257, 9.89725 ], [ -84.93169, 9.8964 ], [ -84.92766, 9.90148 ], [ -84.91517, 9.90258 ], [ -84.91401, 9.90413 ], [ -84.91594, 9.90831 ], [ -84.91861, 9.90973 ], [ -84.91919, 9.91488 ], [ -84.92022, 9.91414 ], [ -84.9208, 9.91543 ], [ -84.91954, 9.92131 ], [ -84.92154, 9.92564 ], [ -84.93151, 9.92482 ], [ -84.93615, 9.92865 ], [ -84.93335, 9.93216 ], [ -84.93496, 9.93118 ], [ -84.94253, 9.93529 ], [ -84.94814, 9.93462 ], [ -84.95585, 9.93787 ], [ -84.95859, 9.94161 ], [ -84.96435, 9.93758 ], [ -84.97094, 9.94249 ], [ -84.97425, 9.93821 ], [ -84.9778, 9.93925 ], [ -84.98113, 9.93631 ], [ -84.98704, 9.93954 ], [ -84.98944, 9.93714 ], [ -84.99829, 9.94017 ], [ -85.00104, 9.93748 ], [ -85.00949, 9.93851 ], [ -85.02148, 9.9499 ], [ -85.02325, 9.95631 ], [ -85.02239, 9.95874 ], [ -85.03053, 9.95993 ], [ -85.03631, 9.9637 ], [ -85.03887, 9.9636 ], [ -85.05214, 9.97542 ], [ -85.05704, 9.97531 ], [ -85.05569, 9.97412 ], [ -85.05585, 9.97348 ], [ -85.05965, 9.97003 ], [ -85.0603, 9.97012 ], [ -85.06093, 9.97251 ], [ -85.06106, 9.97116 ], [ -85.06284, 9.9718 ], [ -85.06249, 9.97279 ], [ -85.06333, 9.9714 ], [ -85.06369, 9.97257 ], [ -85.06415, 9.9714 ], [ -85.06455, 9.97201 ], [ -85.06422, 9.97265 ], [ -85.06504, 9.97247 ], [ -85.06477, 9.97129 ], [ -85.06582, 9.97216 ], [ -85.06574, 9.97079 ], [ -85.0665, 9.97026 ], [ -85.06471, 9.97058 ], [ -85.06379, 9.96838 ], [ -85.06629, 9.96794 ], [ -85.06618, 9.96647 ], [ -85.07023, 9.96756 ], [ -85.07226, 9.96577 ], [ -85.07248, 9.96693 ], [ -85.07303, 9.96613 ], [ -85.07496, 9.967 ], [ -85.07516, 9.96633 ], [ -85.07562, 9.96675 ], [ -85.07565, 9.96756 ], [ -85.07411, 9.96863 ], [ -85.07328, 9.96818 ], [ -85.07326, 9.96731 ], [ -85.07287, 9.96918 ], [ -85.07168, 9.96858 ], [ -85.07338, 9.97193 ], [ -85.07471, 9.97199 ], [ -85.07422, 9.97042 ], [ -85.07559, 9.97084 ], [ -85.078, 9.9675 ], [ -85.08194, 9.96676 ], [ -85.08304, 9.96769 ], [ -85.08156, 9.97242 ], [ -85.07842, 9.97371 ], [ -85.08022, 9.9739 ], [ -85.08126, 9.97592 ], [ -85.07898, 9.97726 ], [ -85.07674, 9.9769 ], [ -85.07795, 9.97755 ], [ -85.07712, 9.97871 ], [ -85.09204, 9.9712 ], [ -85.10191, 9.97528 ], [ -85.10485, 9.97471 ], [ -85.11375, 9.97961 ], [ -85.11605, 9.97879 ], [ -85.11731, 9.98004 ], [ -85.1159, 9.98385 ], [ -85.11908, 9.99152 ], [ -85.12286, 9.99249 ], [ -85.12526, 9.99025 ], [ -85.12682, 9.99172 ], [ -85.12966, 9.98972 ], [ -85.13259, 9.99068 ], [ -85.13779, 9.99419 ], [ -85.14268, 10.0005 ], [ -85.14777, 10.00399 ], [ -85.15344, 10.01107 ], [ -85.16046, 10.01583 ], [ -85.16371, 10.02036 ], [ -85.16842, 10.02135 ], [ -85.16837, 10.0246 ], [ -85.17041, 10.02683 ], [ -85.16868, 10.02804 ], [ -85.16896, 10.0339 ], [ -85.16695, 10.03782 ], [ -85.16264, 10.0361 ], [ -85.16059, 10.03187 ], [ -85.15809, 10.03021 ], [ -85.15436, 10.03076 ], [ -85.15176, 10.03457 ], [ -85.1498, 10.04057 ], [ -85.15221, 10.04928 ], [ -85.15437, 10.04983 ], [ -85.15906, 10.04731 ], [ -85.16931, 10.04604 ], [ -85.1746, 10.04845 ], [ -85.17879, 10.05248 ], [ -85.18394, 10.06529 ], [ -85.1862, 10.0664 ], [ -85.18845, 10.06364 ], [ -85.19027, 10.06367 ], [ -85.19481, 10.08296 ], [ -85.21328, 10.08568 ], [ -85.2203, 10.09165 ], [ -85.22527, 10.0916 ], [ -85.2258, 10.09317 ], [ -85.22975, 10.09462 ], [ -85.23517, 10.10206 ], [ -85.23613, 10.10705 ], [ -85.24067, 10.10647 ], [ -85.24031, 10.11126 ], [ -85.2381, 10.11205 ], [ -85.23762, 10.11415 ], [ -85.24065, 10.12024 ], [ -85.24055, 10.12251 ], [ -85.23911, 10.12316 ], [ -85.23914, 10.128 ], [ -85.24252, 10.13357 ], [ -85.24059, 10.13933 ], [ -85.24517, 10.1451 ], [ -85.24376, 10.15274 ], [ -85.24575, 10.15895 ], [ -85.24763, 10.17619 ], [ -85.24415, 10.19956 ], [ -85.23461, 10.21201 ], [ -85.23135, 10.20969 ], [ -85.22729, 10.20362 ], [ -85.22628, 10.19413 ], [ -85.21725, 10.18614 ], [ -85.21779, 10.18432 ], [ -85.2156, 10.18204 ], [ -85.19088, 10.17341 ], [ -85.18296, 10.17318 ], [ -85.18083, 10.17183 ], [ -85.17996, 10.1735 ], [ -85.17554, 10.17374 ], [ -85.17295, 10.17235 ], [ -85.16906, 10.16696 ], [ -85.15681, 10.16629 ], [ -85.15212, 10.16331 ], [ -85.14645, 10.16228 ], [ -85.1441, 10.16006 ], [ -85.14, 10.16252 ], [ -85.13461, 10.16109 ], [ -85.13394, 10.16656 ], [ -85.13032, 10.17148 ], [ -85.11968, 10.17604 ], [ -85.10936, 10.17629 ], [ -85.10752, 10.17563 ], [ -85.10765, 10.17389 ], [ -85.10731, 10.17503 ], [ -85.10418, 10.17486 ], [ -85.10217, 10.17331 ], [ -85.09819, 10.17315 ], [ -85.09382, 10.17032 ], [ -85.09406, 10.16611 ], [ -85.09643, 10.16294 ], [ -85.09448, 10.15717 ], [ -85.08392, 10.15061 ], [ -85.07781, 10.14474 ] ], [ [ -84.03001, 9.82635 ], [ -84.03001, 9.82638 ], [ -84.03001, 9.82632 ], [ -84.03001, 9.82635 ] ], [ [ -84.03414, 9.82356 ], [ -84.03423, 9.82355 ], [ -84.03406, 9.82356 ], [ -84.03414, 9.82356 ] ], [ [ -83.73546, 10.74742 ], [ -83.73664, 10.75009 ], [ -83.73647, 10.7497 ], [ -83.73546, 10.74742 ] ], [ [ -84.16122, 10.76026 ], [ -84.16123, 10.57529 ], [ -84.16122, 10.76301 ], [ -84.16122, 10.76026 ] ] ], [ [ [ -85.07551, 9.96743 ], [ -85.07528, 9.96661 ], [ -85.07508, 9.96711 ], [ -85.07471, 9.96727 ], [ -85.07551, 9.96743 ] ] ], [ [ [ -85.07458, 9.96773 ], [ -85.07438, 9.96676 ], [ -85.07375, 9.96701 ], [ -85.07458, 9.96773 ] ] ], [ [ [ -85.07924, 9.96805 ], [ -85.07947, 9.96805 ], [ -85.07955, 9.96778 ], [ -85.07944, 9.96777 ], [ -85.07924, 9.96805 ] ] ], [ [ [ -85.07197, 9.96817 ], [ -85.07162, 9.96791 ], [ -85.07149, 9.96831 ], [ -85.07197, 9.96817 ] ] ], [ [ [ -85.0805, 9.96821 ], [ -85.08053, 9.96836 ], [ -85.08076, 9.96829 ], [ -85.0805, 9.96821 ] ] ], [ [ [ -85.07894, 9.9687 ], [ -85.07919, 9.96861 ], [ -85.07918, 9.96846 ], [ -85.07894, 9.9687 ] ] ], [ [ [ -85.08095, 9.96963 ], [ -85.08025, 9.96817 ], [ -85.0805, 9.96781 ], [ -85.07935, 9.96848 ], [ -85.08095, 9.96963 ] ] ], [ [ [ -85.07936, 9.96944 ], [ -85.07947, 9.96914 ], [ -85.07926, 9.96907 ], [ -85.07936, 9.96944 ] ] ], [ [ [ -85.08082, 9.97134 ], [ -85.07994, 9.96952 ], [ -85.07938, 9.9713 ], [ -85.08082, 9.97134 ] ] ], [ [ [ -85.07208, 9.97133 ], [ -85.07215, 9.97132 ], [ -85.07197, 9.97102 ], [ -85.07208, 9.97133 ] ] ], [ [ [ -85.07562, 9.97119 ], [ -85.0756, 9.97117 ], [ -85.07553, 9.97129 ], [ -85.07562, 9.97119 ] ] ], [ [ [ -85.07827, 9.97154 ], [ -85.07834, 9.9714 ], [ -85.07818, 9.97125 ], [ -85.07827, 9.97154 ] ] ], [ [ [ -85.07858, 9.97259 ], [ -85.07869, 9.97253 ], [ -85.07855, 9.97229 ], [ -85.07858, 9.97259 ] ] ], [ [ [ -85.08045, 9.97242 ], [ -85.08024, 9.97254 ], [ -85.08039, 9.97269 ], [ -85.08045, 9.97242 ] ] ], [ [ [ -85.07865, 9.97438 ], [ -85.07852, 9.97446 ], [ -85.07865, 9.97466 ], [ -85.07865, 9.97438 ] ] ], [ [ [ -85.07871, 9.97597 ], [ -85.0801, 9.97573 ], [ -85.08014, 9.9748 ], [ -85.07949, 9.97499 ], [ -85.07871, 9.97597 ] ] ], [ [ [ -85.07719, 9.97614 ], [ -85.07406, 9.97495 ], [ -85.07504, 9.97573 ], [ -85.07719, 9.97614 ] ] ], [ [ [ -85.07845, 9.97557 ], [ -85.07708, 9.97584 ], [ -85.07778, 9.97577 ], [ -85.07845, 9.97557 ] ] ], [ [ [ -85.07614, 9.97703 ], [ -85.07607, 9.97706 ], [ -85.0761, 9.97716 ], [ -85.07614, 9.97703 ] ] ], [ [ [ -85.07648, 9.9773 ], [ -85.07652, 9.97742 ], [ -85.07667, 9.97742 ], [ -85.07648, 9.9773 ] ] ], [ [ [ -85.07647, 9.97767 ], [ -85.07644, 9.97708 ], [ -85.07631, 9.97712 ], [ -85.07647, 9.97767 ] ] ], [ [ [ -85.0769, 9.9782 ], [ -85.07712, 9.9781 ], [ -85.07649, 9.97778 ], [ -85.0769, 9.9782 ] ] ], [ [ [ -85.07668, 9.97843 ], [ -85.07712, 9.97849 ], [ -85.07701, 9.97819 ], [ -85.07668, 9.97843 ] ] ], [ [ [ -85.07343, 9.9788 ], [ -85.0727, 9.97781 ], [ -85.07104, 9.97899 ], [ -85.07343, 9.9788 ] ] ], [ [ [ -85.07252, 9.98059 ], [ -85.07244, 9.98074 ], [ -85.07275, 9.98082 ], [ -85.07252, 9.98059 ] ] ], [ [ [ -85.07383, 9.98109 ], [ -85.07355, 9.9816 ], [ -85.07454, 9.98091 ], [ -85.07383, 9.98109 ] ] ], [ [ [ -85.07407, 9.98334 ], [ -85.07397, 9.9834 ], [ -85.07406, 9.98346 ], [ -85.07407, 9.98334 ] ] ], [ [ [ -85.07633, 9.9836 ], [ -85.07623, 9.98363 ], [ -85.07633, 9.98375 ], [ -85.07633, 9.9836 ] ] ], [ [ [ -85.07633, 9.98419 ], [ -85.07625, 9.98429 ], [ -85.07631, 9.98432 ], [ -85.07633, 9.98419 ] ] ], [ [ [ -85.07465, 9.98529 ], [ -85.0753, 9.98478 ], [ -85.07521, 9.98461 ], [ -85.07465, 9.98529 ] ] ], [ [ [ -85.07402, 9.98582 ], [ -85.0739, 9.98587 ], [ -85.07398, 9.98595 ], [ -85.07402, 9.98582 ] ] ], [ [ [ -85.07092, 9.96887 ], [ -85.07107, 9.96903 ], [ -85.07116, 9.96894 ], [ -85.07092, 9.96887 ] ] ], [ [ [ -85.06782, 9.96899 ], [ -85.06799, 9.96883 ], [ -85.06783, 9.9686 ], [ -85.06782, 9.96899 ] ] ], [ [ [ -85.0706, 9.96864 ], [ -85.07071, 9.96896 ], [ -85.07085, 9.96886 ], [ -85.0706, 9.96864 ] ] ], [ [ [ -85.06899, 9.96931 ], [ -85.06904, 9.96927 ], [ -85.06892, 9.96915 ], [ -85.06899, 9.96931 ] ] ], [ [ [ -85.07047, 9.97048 ], [ -85.07206, 9.96962 ], [ -85.0702, 9.96879 ], [ -85.07047, 9.97048 ] ] ], [ [ [ -85.07015, 9.97063 ], [ -85.07018, 9.97041 ], [ -85.06992, 9.9704 ], [ -85.07015, 9.97063 ] ] ], [ [ [ -85.06957, 9.97078 ], [ -85.06947, 9.97082 ], [ -85.06953, 9.97089 ], [ -85.06957, 9.97078 ] ] ], [ [ [ -85.07061, 9.97092 ], [ -85.07073, 9.97107 ], [ -85.07088, 9.97091 ], [ -85.07061, 9.97092 ] ] ], [ [ [ -85.06601, 9.97129 ], [ -85.06613, 9.97136 ], [ -85.06613, 9.97126 ], [ -85.06601, 9.97129 ] ] ], [ [ [ -85.06156, 9.97213 ], [ -85.06148, 9.97213 ], [ -85.06149, 9.97219 ], [ -85.06156, 9.97213 ] ] ], [ [ [ -85.06194, 9.97294 ], [ -85.06199, 9.97287 ], [ -85.06141, 9.97272 ], [ -85.06194, 9.97294 ] ] ], [ [ [ -85.06932, 9.97271 ], [ -85.06924, 9.97278 ], [ -85.06933, 9.97287 ], [ -85.06932, 9.97271 ] ] ], [ [ [ -85.07003, 9.9735 ], [ -85.07015, 9.97334 ], [ -85.06945, 9.97294 ], [ -85.07003, 9.9735 ] ] ], [ [ [ -85.06861, 9.97394 ], [ -85.06942, 9.97353 ], [ -85.06886, 9.9727 ], [ -85.06861, 9.97394 ] ] ], [ [ [ -85.06099, 9.97393 ], [ -85.0618, 9.97322 ], [ -85.06108, 9.973 ], [ -85.06099, 9.97393 ] ] ], [ [ [ -85.06393, 9.97362 ], [ -85.06389, 9.97402 ], [ -85.06404, 9.97402 ], [ -85.06393, 9.97362 ] ] ], [ [ [ -85.06298, 9.97469 ], [ -85.06347, 9.97424 ], [ -85.06348, 9.97351 ], [ -85.06298, 9.97469 ] ] ], [ [ [ -85.06237, 9.9754 ], [ -85.06286, 9.97363 ], [ -85.06174, 9.97443 ], [ -85.06237, 9.9754 ] ] ], [ [ [ -85.06091, 9.97504 ], [ -85.06151, 9.97568 ], [ -85.06146, 9.97538 ], [ -85.06091, 9.97504 ] ] ], [ [ [ -85.06854, 9.97518 ], [ -85.0686, 9.97545 ], [ -85.0687, 9.97537 ], [ -85.06854, 9.97518 ] ] ], [ [ [ -85.07027, 9.97747 ], [ -85.07234, 9.9765 ], [ -85.07024, 9.97356 ], [ -85.07058, 9.97636 ], [ -85.06815, 9.97623 ], [ -85.07027, 9.97747 ] ] ], [ [ [ -85.06916, 9.97734 ], [ -85.06902, 9.97743 ], [ -85.06909, 9.97748 ], [ -85.06916, 9.97734 ] ] ], [ [ [ -85.06371, 9.97958 ], [ -85.06452, 9.97873 ], [ -85.06421, 9.97866 ], [ -85.06371, 9.97958 ] ] ], [ [ [ -85.06197, 9.97941 ], [ -85.06212, 9.97902 ], [ -85.06161, 9.97915 ], [ -85.06197, 9.97941 ] ] ], [ [ [ -85.06764, 9.97952 ], [ -85.06715, 9.97854 ], [ -85.06701, 9.97859 ], [ -85.06764, 9.97952 ] ] ], [ [ [ -85.06616, 9.97984 ], [ -85.06639, 9.97924 ], [ -85.06579, 9.97935 ], [ -85.06616, 9.97984 ] ] ], [ [ [ -85.07239, 9.98044 ], [ -85.06997, 9.97983 ], [ -85.0709, 9.98131 ], [ -85.07239, 9.98044 ] ] ], [ [ [ -85.07091, 9.98056 ], [ -85.07085, 9.98062 ], [ -85.07091, 9.9807 ], [ -85.07091, 9.98056 ] ] ], [ [ [ -85.06342, 9.98098 ], [ -85.06335, 9.98101 ], [ -85.06346, 9.98107 ], [ -85.06342, 9.98098 ] ] ], [ [ [ -85.06358, 9.98108 ], [ -85.06366, 9.9812 ], [ -85.06376, 9.98115 ], [ -85.06358, 9.98108 ] ] ], [ [ [ -85.06342, 9.98112 ], [ -85.06335, 9.98114 ], [ -85.0634, 9.98118 ], [ -85.06342, 9.98112 ] ] ], [ [ [ -85.07121, 9.99473 ], [ -85.07083, 9.99206 ], [ -85.07385, 9.99198 ], [ -85.07627, 9.9891 ], [ -85.08074, 9.9886 ], [ -85.0831, 9.99041 ], [ -85.0845, 9.9893 ], [ -85.08, 9.98552 ], [ -85.08015, 9.98358 ], [ -85.077, 9.98383 ], [ -85.07745, 9.98587 ], [ -85.076, 9.98755 ], [ -85.07537, 9.98603 ], [ -85.07263, 9.98622 ], [ -85.07224, 9.98458 ], [ -85.07386, 9.98492 ], [ -85.07387, 9.98321 ], [ -85.06877, 9.98151 ], [ -85.06835, 9.97952 ], [ -85.06648, 9.9801 ], [ -85.06639, 9.98086 ], [ -85.06762, 9.98106 ], [ -85.06645, 9.98249 ], [ -85.06476, 9.98139 ], [ -85.06344, 9.9828 ], [ -85.05484, 9.97977 ], [ -85.04171, 9.98139 ], [ -85.04511, 9.98546 ], [ -85.05378, 9.99126 ], [ -85.06612, 9.99271 ], [ -85.07121, 9.99473 ] ] ], [ [ [ -84.89748, 9.77348 ], [ -84.90166, 9.77137 ], [ -84.89737, 9.7682 ], [ -84.89717, 9.76438 ], [ -84.89529, 9.76353 ], [ -84.89057, 9.76357 ], [ -84.89054, 9.76673 ], [ -84.88832, 9.767 ], [ -84.88671, 9.7704 ], [ -84.88305, 9.77044 ], [ -84.88665, 9.77318 ], [ -84.88824, 9.77194 ], [ -84.89748, 9.77348 ] ] ], [ [ [ -84.89875, 9.78418 ], [ -84.9038, 9.78366 ], [ -84.90249, 9.78242 ], [ -84.90441, 9.78097 ], [ -84.9029, 9.77909 ], [ -84.90521, 9.77742 ], [ -84.9031, 9.77339 ], [ -84.8973, 9.7769 ], [ -84.89755, 9.78156 ], [ -84.89935, 9.78227 ], [ -84.89875, 9.78418 ] ] ], [ [ [ -84.8891, 9.84547 ], [ -84.89614, 9.84061 ], [ -84.89476, 9.83943 ], [ -84.88819, 9.8415 ], [ -84.88725, 9.84342 ], [ -84.8891, 9.84547 ] ] ], [ [ [ -84.8775, 9.85185 ], [ -84.87809, 9.84939 ], [ -84.88091, 9.85066 ], [ -84.88135, 9.8491 ], [ -84.88249, 9.84994 ], [ -84.88267, 9.84465 ], [ -84.88079, 9.84376 ], [ -84.88178, 9.84214 ], [ -84.87986, 9.84142 ], [ -84.88981, 9.83902 ], [ -84.89004, 9.83752 ], [ -84.88086, 9.8373 ], [ -84.88067, 9.8387 ], [ -84.87765, 9.83989 ], [ -84.87129, 9.84092 ], [ -84.87086, 9.84125 ], [ -84.87338, 9.84231 ], [ -84.87623, 9.84222 ], [ -84.87629, 9.84497 ], [ -84.87194, 9.84823 ], [ -84.86827, 9.84786 ], [ -84.86443, 9.85028 ], [ -84.86541, 9.85098 ], [ -84.86714, 9.84958 ], [ -84.86767, 9.85181 ], [ -84.8775, 9.85185 ] ] ], [ [ [ -84.9024, 9.95413 ], [ -84.91085, 9.95154 ], [ -84.9073, 9.95032 ], [ -84.9029, 9.95212 ], [ -84.90206, 9.949 ], [ -84.90567, 9.94404 ], [ -84.90868, 9.94485 ], [ -84.91219, 9.94319 ], [ -84.917, 9.94595 ], [ -84.92046, 9.9449 ], [ -84.9207, 9.94326 ], [ -84.91812, 9.94177 ], [ -84.91915, 9.93846 ], [ -84.91815, 9.935 ], [ -84.91463, 9.93281 ], [ -84.90858, 9.93241 ], [ -84.90618, 9.93089 ], [ -84.89609, 9.93243 ], [ -84.89254, 9.93498 ], [ -84.89095, 9.93722 ], [ -84.89658, 9.94108 ], [ -84.8965, 9.94312 ], [ -84.89821, 9.94463 ], [ -84.89622, 9.95018 ], [ -84.89304, 9.95111 ], [ -84.9024, 9.95413 ] ] ], [ [ [ -85.05948, 9.97039 ], [ -85.05952, 9.97061 ], [ -85.05969, 9.97053 ], [ -85.05948, 9.97039 ] ] ], [ [ [ -85.05879, 9.97158 ], [ -85.05895, 9.97157 ], [ -85.0589, 9.97147 ], [ -85.05879, 9.97158 ] ] ], [ [ [ -85.05804, 9.97155 ], [ -85.05794, 9.97165 ], [ -85.05806, 9.97176 ], [ -85.05804, 9.97155 ] ] ], [ [ [ -85.05873, 9.97191 ], [ -85.05876, 9.97162 ], [ -85.0583, 9.97141 ], [ -85.05873, 9.97191 ] ] ], [ [ [ -85.05897, 9.97178 ], [ -85.05894, 9.97174 ], [ -85.0589, 9.97183 ], [ -85.05897, 9.97178 ] ] ], [ [ [ -85.05789, 9.97174 ], [ -85.05778, 9.97196 ], [ -85.05789, 9.97197 ], [ -85.05789, 9.97174 ] ] ], [ [ [ -85.05789, 9.97201 ], [ -85.05782, 9.97202 ], [ -85.05785, 9.97212 ], [ -85.05789, 9.97201 ] ] ], [ [ [ -85.0581, 9.97234 ], [ -85.05871, 9.97204 ], [ -85.0581, 9.97184 ], [ -85.0581, 9.97234 ] ] ], [ [ [ -85.05865, 9.9723 ], [ -85.05856, 9.97234 ], [ -85.05869, 9.97241 ], [ -85.05865, 9.9723 ] ] ], [ [ [ -85.05827, 9.97243 ], [ -85.05845, 9.97264 ], [ -85.05856, 9.97251 ], [ -85.05827, 9.97243 ] ] ], [ [ [ -85.05934, 9.97442 ], [ -85.06068, 9.97276 ], [ -85.05957, 9.97064 ], [ -85.05899, 9.97372 ], [ -85.05954, 9.97237 ], [ -85.06031, 9.97271 ], [ -85.05934, 9.97442 ] ] ], [ [ [ -85.05963, 9.97319 ], [ -85.05971, 9.97367 ], [ -85.05977, 9.97358 ], [ -85.05963, 9.97319 ] ] ], [ [ [ -85.05631, 9.97394 ], [ -85.05645, 9.97384 ], [ -85.05636, 9.97374 ], [ -85.05631, 9.97394 ] ] ], [ [ [ -85.05612, 9.97395 ], [ -85.05605, 9.97346 ], [ -85.05588, 9.97348 ], [ -85.05612, 9.97395 ] ] ], [ [ [ -85.05885, 9.97481 ], [ -85.05769, 9.97278 ], [ -85.05636, 9.97399 ], [ -85.05885, 9.97481 ] ] ], [ [ [ -85.05616, 9.97402 ], [ -85.05627, 9.9743 ], [ -85.05635, 9.97418 ], [ -85.05616, 9.97402 ] ] ], [ [ [ -85.06046, 9.97524 ], [ -85.06046, 9.97519 ], [ -85.06036, 9.9752 ], [ -85.06046, 9.97524 ] ] ], [ [ [ -85.06085, 9.97532 ], [ -85.06079, 9.97537 ], [ -85.06085, 9.97541 ], [ -85.06085, 9.97532 ] ] ], [ [ [ -85.0605, 9.98088 ], [ -85.06035, 9.98091 ], [ -85.06049, 9.981 ], [ -85.0605, 9.98088 ] ] ], [ [ [ -85.01118, 9.99607 ], [ -85.01324, 9.9932 ], [ -85.00567, 9.99198 ], [ -85.00247, 9.99281 ], [ -84.99588, 9.98735 ], [ -84.97865, 9.98126 ], [ -84.97289, 9.982 ], [ -84.96443, 9.97972 ], [ -84.96098, 9.98142 ], [ -84.9588, 9.98046 ], [ -84.95993, 9.9865 ], [ -84.96692, 9.98465 ], [ -84.96951, 9.98578 ], [ -84.9702, 9.98883 ], [ -84.97311, 9.98729 ], [ -84.97637, 9.98967 ], [ -84.98795, 9.99067 ], [ -84.98961, 9.99323 ], [ -84.98879, 9.9953 ], [ -84.99681, 9.99331 ], [ -84.99981, 9.99516 ], [ -85.00495, 9.99436 ], [ -85.01118, 9.99607 ] ] ], [ [ [ -85.05041, 10.00606 ], [ -85.03998, 10.00011 ], [ -85.02824, 9.99665 ], [ -85.02141, 9.99575 ], [ -85.01821, 9.99797 ], [ -85.02053, 10.00041 ], [ -85.02391, 10.00007 ], [ -85.03048, 10.0027 ], [ -85.03204, 10.00205 ], [ -85.04294, 10.00555 ], [ -85.05041, 10.00606 ] ] ] ] } }
]
}
